eventid,iyear,imonth,iday,approxdate,extended,resolution,country,country_txt,region,region_txt,provstate,city,latitude,longitude,specificity,vicinity,location,summary,crit1,crit2,crit3,doubtterr,alternative,alternative_txt,multiple,success,suicide,attacktype1,attacktype1_txt,attacktype2,attacktype2_txt,attacktype3,attacktype3_txt,targtype1,targtype1_txt,targsubtype1,targsubtype1_txt,corp1,target1,natlty1,natlty1_txt,targtype2,targtype2_txt,targsubtype2,targsubtype2_txt,corp2,target2,natlty2,natlty2_txt,targtype3,targtype3_txt,targsubtype3,targsubtype3_txt,corp3,target3,natlty3,natlty3_txt,gname,gsubname,gname2,gsubname2,gname3,gsubname3,motive,guncertain1,guncertain2,guncertain3,individual,nperps,nperpcap,claimed,claimmode,claimmode_txt,claim2,claimmode2,claimmode2_txt,claim3,claimmode3,claimmode3_txt,compclaim,weaptype1,weaptype1_txt,weapsubtype1,weapsubtype1_txt,weaptype2,weaptype2_txt,weapsubtype2,weapsubtype2_txt,weaptype3,weaptype3_txt,weapsubtype3,weapsubtype3_txt,weaptype4,weaptype4_txt,weapsubtype4,weapsubtype4_txt,weapdetail,nkill,nkillus,nkillter,nwound,nwoundus,nwoundte,property,propextent,propextent_txt,propvalue,propcomment,ishostkid,nhostkid,nhostkidus,nhours,ndays,divert,kidhijcountry,ransom,ransomamt,ransomamtus,ransompaid,ransompaidus,ransomnote,hostkidoutcome,hostkidoutcome_txt,nreleased,addnotes,scite1,scite2,scite3,dbsource,INT_LOG,INT_IDEO,INT_MISC,INT_ANY,related
1,1970,10,21,,0,,14,Australia,12,Australasia & Oceania,Victoria,Melbourne,-37.813187,144.96298,1,0,,,1,1,1,0,,,0,1,0,3,Bombing/Explosion,,,,,7,Government (Diplomatic),46,Embassy/Consulate,,Yugoslav Consulate,235,Yugoslavia,,,,,,,,,,,,,,,,,Croatian Nationalists,,,,,,,0,,,0,,,,,,,,,,,,,6,Explosives,16,Unknown Explosive Type,,,,,,,,,,,,,Explosive,0,,,0,,,0,,,,,0,,,,,,,0,,,,,,,,,,,,,PGIS,1,1,1,1,
2,1971,11,23,,0,,14,Australia,12,Australasia & Oceania,New South Wales,Sydney,-33.873651,151.20689,1,0,,,1,1,1,-9,,,0,1,0,3,Bombing/Explosion,,,,,1,Business,11,Entertainment/Cultural/Stadium/Casino,,yugoslav travel agency,235,Yugoslavia,,,,,,,,,,,,,,,,,Croatian Nationalists,,,,,,,0,,,0,,,,,,,,,,,,,6,Explosives,16,Unknown Explosive Type,,,,,,,,,,,,,Explosive,0,,,0,,,1,4,Unknown,,,0,,,,,,,0,,,,,,,,,,,,,PGIS,1,1,1,1,
3,1972,9,17,,0,,14,Australia,12,Australasia & Oceania,Queensland,Brisbane,-27.470933,153.023502,1,0,,,1,1,1,0,,,0,1,0,3,Bombing/Explosion,,,,,18,Tourists,95,Tourism Travel Agency,,yugoslav Tourist Office,235,Yugoslavia,,,,,,,,,,,,,,,,,Croatian Nationalists,,,,,,,0,,,0,,,,,,,,,,,,,6,Explosives,16,Unknown Explosive Type,,,,,,,,,,,,,Explosive,0,,,0,,,1,,,,,0,,,,,,,0,,,,,,,,,,,,,PGIS,1,1,1,1,
4,1972,12,8,,0,,14,Australia,12,Australasia & Oceania,Queensland,Brisbane,-27.470933,153.023502,1,0,,,1,1,1,-9,,,0,1,0,3,Bombing/Explosion,,,,,1,Business,,,,U.S. Dosinisman,217,United States,,,,,,,,,,,,,,,,,Unknown,,,,,,,0,,,0,,,,,,,,,,,,,6,Explosives,15,Vehicle,,,,,,,,,,,,,Explosive,1,1,,0,,,1,,,,,0,,,,,,,0,,,,,,,,,,,,,PGIS,-9,-9,1,1,
5,1974,12,24,,0,,14,Australia,12,Australasia & Oceania,New South Wales,Sydney,-33.873651,151.20689,1,0,,,1,1,1,-9,,,0,1,0,7,Facility/Infrastructure Attack,,,,,6,Airports & Aircraft,43,Airline Officer/Personnel,,Pan American Airlines ticket office downtown,217,United States,,,,,,,,,,,,,,,,,Unknown,,,,,,,0,,,0,,,,,,,,,,,,,8,Incendiary,,,,,,,,,,,,,,,Incendiary,0,,,0,,,1,,,,,0,,,,,,,0,,,,,,,,,,,,,PGIS,-9,-9,1,1,
6,1978,2,13,,0,,14,Australia,12,Australasia & Oceania,New South Wales,Sydney,-33.873651,151.20689,1,0,,,1,1,1,-9,,,0,1,0,3,Bombing/Explosion,,,,,1,Business,8,Hotel/Resort,,Sydney Hilton Hotel,14,Australia,,,,,,,,,,,,,,,,,Unknown,,,,,,,0,,,0,,,,,,,,,,,,,6,Explosives,16,Unknown Explosive Type,,,,,,,,,,,,,Explosive,2,,,9,,,1,3,Minor (likely < $1 million),2000,,0,,,,,,,0,,,,,,,,,,,,,PGIS,-9,-9,0,-9,
7,1978,5,27,,0,,14,Australia,12,Australasia & Oceania,New South Wales,Sydney,-33.873651,151.20689,1,0,,,1,1,1,0,,,0,1,0,3,Bombing/Explosion,,,,,7,Government (Diplomatic),45,"Diplomatic Personnel (outside of embassy, consulate)",,"Residence,  Indian Ambassador",92,India,,,,,,,,,,,,,,,,,Unknown,,,,,,,0,,,0,,,,,,,,,,,,,6,Explosives,16,Unknown Explosive Type,,,,,,,,,,,,,Explosive,0,,,0,,,1,,,,,0,,,,,,,0,,,,,,,,,,,,,PGIS,-9,-9,1,1,
8,1979,1,4,,0,,14,Australia,12,Australasia & Oceania,Australian Capital Territory,Canberra,-35.308236,149.124224,1,0,,,1,1,1,0,,,0,1,0,3,Bombing/Explosion,,,,,2,Government (General),20,Intelligence,,"home Brain Brit, intelligence analyst",14,Australia,,,,,,,,,,,,,,,,,Unknown,,,,,,,0,,,0,,,,,,,,,,,,,6,Explosives,16,Unknown Explosive Type,,,,,,,,,,,,,Explosive,0,,,0,,,0,,,,,0,,,,,,,0,,,,,,,,,,,,,PGIS,-9,-9,0,-9,
9,1979,4,0,,0,,14,Australia,12,Australasia & Oceania,Western Australia,Perth,-31.952854,115.857339,1,0,,,1,1,1,-9,,,0,1,0,3,Bombing/Explosion,,,,,1,Business,7,Retail/Grocery/Bakery,,Boans Department Store,14,Australia,,,,,,,,,,,,,,,,,Unknown,,,,,,,0,,,0,1,,,,,,,,,,,,6,Explosives,16,Unknown Explosive Type,,,,,,,,,,,,,Explosive,0,,,9,,,1,4,Unknown,,,0,,,,,,,0,,,,,,,,,,,,,PGIS,-9,-9,0,-9,
10,1980,11,6,,0,,14,Australia,12,Australasia & Oceania,New South Wales,Sydney,-33.873651,151.20689,1,0,,,1,1,1,-9,,,0,1,0,2,Armed Assault,,,,,7,Government (Diplomatic),45,"Diplomatic Personnel (outside of embassy, consulate)",,Home of Nicholas Papallo (42)-Honorary  Vice Consul,98,Italy,,,,,,,,,,,,,,,,,Unknown,,,,,,,0,,,0,,,,,,,,,,,,,5,Firearms,2,Automatic or Semi-Automatic Rifle,,,,,,,,,,,,,Automatic rifles,0,,,1,,,1,,,,,0,,,,,,,0,,,,,,,,,,,,,PGIS,-9,-9,1,1,
11,1980,12,0,,0,,14,Australia,12,Australasia & Oceania,New South Wales,Maitland,-32.733664,151.557668,1,0,,,1,1,1,-9,,,0,1,0,3,Bombing/Explosion,,,,,1,Business,7,Retail/Grocery/Bakery,,Woolworth Store,14,Australia,,,,,,,,,,,,,,,,,Unknown,,,,,,,0,,,0,,,,,,,,,,,,,6,Explosives,16,Unknown Explosive Type,,,,,,,,,,,,,Explosive,,,,,,,1,4,Unknown,,,0,,,,,,,0,,,,,,,,,,,,,PGIS,-9,-9,0,-9,
12,1980,12,0,,0,,14,Australia,12,Australasia & Oceania,New South Wales,Warilla,-34.547304,150.86172,1,0,,,1,1,1,-9,,,0,1,0,3,Bombing/Explosion,,,,,1,Business,7,Retail/Grocery/Bakery,,Woolworths Store,14,Australia,,,,,,,,,,,,,,,,,Unknown,,,,,,,0,,,0,,,,,,,,,,,,,6,Explosives,16,Unknown Explosive Type,,,,,,,,,,,,,Explosive,,,,,,,1,4,Unknown,,,0,,,,,,,0,,,,,,,,,,,,,PGIS,-9,-9,0,-9,
13,1980,12,17,,0,,14,Australia,12,Australasia & Oceania,New South Wales,Sydney,-33.873651,151.20689,1,0,,,1,1,0,1,1,Insurgency/Guerilla Action,0,1,0,1,Assassination,,,,,4,Military,34,"Military Personnel (soldiers, troops, officers, forces)",Turkish Government,"Sarik Ariyak; 50, Engin Sever; 28/Turkish General and bodyguard",209,Turkey,,,,,,,,,,,,,,,,,Justice Commandos for the Armenian Genocide,,,,,,,0,,,0,2,,,,,,,,,,,,5,Firearms,3,Handgun,,,,,,,,,,,,,Pistol,2,,,0,,,0,,,,,0,,,,,,,0,,,,,,,,,,,,,PGIS,1,1,1,1,
14,1980,12,24,,0,,14,Australia,12,Australasia & Oceania,New South Wales,Sydney,-33.873651,151.20689,1,0,,,1,1,1,-9,,,0,1,0,3,Bombing/Explosion,,,,,1,Business,7,Retail/Grocery/Bakery,,Woolworth's store,14,Australia,,,,,,,,,,,,,,,,,Extortionists,,,,,,,0,,,0,,,,,,,,,,,,,6,Explosives,16,Unknown Explosive Type,,,,,,,,,,,,,Explosive,0,,,2,,,1,,,,"Damages: explosion, broken windows (store)",0,,,,,,,0,,,,,,,,,,,,,PGIS,-9,-9,0,-9,
15,1980,12,28,,0,,14,Australia,12,Australasia & Oceania,New South Wales,Liverpool,-33.920019,150.924127,1,0,,,1,1,1,-9,,,0,0,0,3,Bombing/Explosion,,,,,1,Business,7,Retail/Grocery/Bakery,,Woolworths store,14,Australia,,,,,,,,,,,,,,,,,Extortionists,,,,,,,0,,,0,,,,,,,,,,,,,13,Unknown,,,,,,,,,,,,,,,,0,,,0,,,0,,,,,0,,,,,,,0,,,,,,,,,,,,,PGIS,-9,-9,0,-9,
16,1981,11,16,,0,,14,Australia,12,Australasia & Oceania,New South Wales,Sydney,-33.873651,151.20689,1,0,,,1,1,1,0,,,0,1,0,1,Assassination,,,,,7,Government (Diplomatic),45,"Diplomatic Personnel (outside of embassy, consulate)",Government of Greece,"Consul-general to Australia, C. Giannaris",78,Greece,,,,,,,,,,,,,,,,,Unknown,,,,,,,0,,,0,,,,,,,,,,,,,9,Melee,23,Knife or Other Sharp Object,,,,,,,,,,,,,Stabbed,1,,,0,,,0,,,,,0,,,,,,,0,,,,,,,,,,,,,PGIS,-9,-9,1,1,
17,1982,12,23,,0,,14,Australia,12,Australasia & Oceania,New South Wales,Sydney,-33.873651,151.20689,1,0,,,1,1,1,0,,,0,1,0,3,Bombing/Explosion,,,,,7,Government (Diplomatic),46,Embassy/Consulate,,Israeli Consulate (in Westfield Tower on William Street),97,Israel,,,,,,,,,,,,,,,,,Palestine Liberation Organization (PLO),,,,,,,0,,,0,,,,,,,,,,,,,6,Explosives,16,Unknown Explosive Type,,,,,,,,,,,,,Explosive,0,,,3,,,1,,,,"Damages: explosion, damaged 3 floors of high rise building (consulate)",0,,,,,,,0,,,,,,,,,,,,,PGIS,1,1,1,1,
18,1982,12,23,,0,,14,Australia,12,Australasia & Oceania,New South Wales,Sydney,-33.873651,151.20689,1,0,,,1,1,1,-9,,,0,1,0,3,Bombing/Explosion,,,,,14,Private Citizens & Property,82,Labor Union Related,,Hakvah Club (largest Jewish club in the city),14,Australia,,,,,,,,,,,,,,,,,Unknown,,,,,,,0,,,0,,,,,,,,,,,,,6,Explosives,16,Unknown Explosive Type,,,,,,,,,,,,,Explosive,,,,,,,1,,,,"Damages: explosion, destroyed 2 cars",0,,,,,,,0,,,,,,,,,,,,,PGIS,-9,-9,0,-9,
19,1986,3,27,,0,,14,Australia,12,Australasia & Oceania,Victoria,Melbourne,-37.813187,144.96298,1,0,,,1,1,1,0,,,0,1,0,3,Bombing/Explosion,,,,,3,Police,22,"Police Building (headquarters, station, school)",,police hdqtrs.,14,Australia,,,,,,,,,,,,,,,,,Unknown,,,,,,,0,,,0,,,,,,,,,,,,,6,Explosives,15,Vehicle,,,,,,,,,,,,,Explosive,0,,,21,,,1,,,,"Damages: explosion/car bomb, damaged facility (police headquarters)",0,,,,,,,0,,,,,,,,,,,,,PGIS,-9,-9,0,-9,
20,1986,11,23,,0,,14,Australia,12,Australasia & Oceania,Victoria,Melbourne,-37.813187,144.96298,1,0,,,1,1,1,0,,,0,1,0,3,Bombing/Explosion,,,,,7,Government (Diplomatic),45,"Diplomatic Personnel (outside of embassy, consulate)",,Turkish Consulate S. Yarra,209,Turkey,,,,,,,,,,,,,,,,,Greek Bulgarian Armenian Front,,,,,,,0,,,0,,,,,,,,,,,,,6,Explosives,15,Vehicle,,,,,,,,,,,,,Car bomb,1,,1,1,,,1,,,,,0,,,,,,,0,,,,,,,,,,,,,PGIS,-9,-9,1,1,
21,1988,4,10,,0,,14,Australia,12,Australasia & Oceania,Australian Capital Territory,Canberra,-35.308236,149.124224,1,0,,,1,1,1,-9,,,0,1,0,2,Armed Assault,,,,,7,Government (Diplomatic),45,"Diplomatic Personnel (outside of embassy, consulate)",S. Africa State Dept,"Vehicle, Third Secy, S. Africa Embassy",183,South Africa,,,,,,,,,,,,,,,,,Unknown,,,,,,,0,,,0,,,,,,,,,,,,,8,Incendiary,,,,,,,,,,,,,,,Incendiary,0,,,0,,,1,3,Minor (likely < $1 million),20000,,0,,,,,,,0,,,,,,,,,,,,,PGIS,-9,-9,1,1,
22,1988,7,18,,0,,14,Australia,12,Australasia & Oceania,Australian Capital Territory,Canberra,-35.308236,149.124224,1,0,,,1,1,0,1,1,Insurgency/Guerilla Action,0,1,0,1,Assassination,,,,,4,Military,35,Military Transportation/Vehicle (excluding convoys),U.S. Defense Attache,"Vehicle, Colonel Dean Stickwell",217,United States,,,,,,,,,,,,,,,,,Unknown,,,,,,,0,,,0,,,,,,,,,,,,,6,Explosives,16,Unknown Explosive Type,,,,,,,,,,,,,Explosive,0,,,0,,,1,,,,,0,,,,,,,0,,,,,,,,,,,,,PGIS,-9,-9,1,1,
23,1988,12,21,,0,,14,Australia,12,Australasia & Oceania,South Australia,Adelaide,-34.928726,138.599945,1,0,,,1,1,1,0,,,0,0,0,3,Bombing/Explosion,,,,,3,Police,23,Police Patrol (including vehicles and convoys),Police,Police Car,14,Australia,,,,,,,,,,,,,,,,,Unknown,,,,,,,0,,,0,,,,,,,,,,,,,6,Explosives,16,Unknown Explosive Type,,,,,,,,,,,,,Explosive,0,,,0,,,1,,,,,0,,,,,,,0,,,,,,,,,,,,,PGIS,-9,-9,0,-9,
24,1989,1,30,,0,,14,Australia,12,Australasia & Oceania,New South Wales,Sydney,-33.873651,151.20689,1,0,,,1,1,1,0,,,0,1,0,2,Armed Assault,,,,,22,Violent Political Party,109,Party Official/Candidate/Other Personnel,African National Congress (ANC),Representative: Eddy Fundi,183,South Africa,,,,,,,,,,,,,,,,,Unknown,,,,,,,0,,,0,,,,,,,,,,,,,5,Firearms,4,Rifle/Shotgun (non-automatic),,,,,,,,,,,,,Shotgun,0,,,0,,,1,,,,,0,,,,,,,0,,,,,,,,,,,,,PGIS,-9,-9,1,1,
25,1989,10,27,,0,,14,Australia,12,Australasia & Oceania,New South Wales,Sydney,-33.873651,151.20689,1,0,,,1,1,1,-9,,,0,0,0,7,Facility/Infrastructure Attack,,,,,7,Government (Diplomatic),45,"Diplomatic Personnel (outside of embassy, consulate)",us state dept,"near home, embassy employee",217,United States,,,,,,,,,,,,,,,,,Unknown,,,,,,,0,,,0,,,,,,,,,,,,,8,Incendiary,,,,,,,,,,,,,,,Incendiary - discovered,0,,,0,,,1,,,,,0,,,,,,,0,,,,,,,,,,,,,PGIS,-9,-9,1,1,
26,1991,1,24,,0,,14,Australia,12,Australasia & Oceania,New South Wales,Rooty Hill,-33.771222,150.844671,1,0,,,1,1,1,-9,,,0,1,0,7,Facility/Infrastructure Attack,,,,,14,Private Citizens & Property,81,Museum/Cultural Center/Cultural House,Rooty hill islamic center,Rooty hill islamic center,14,Australia,,,,,,,,,,,,,,,,,Unknown,,,,,,,0,,,0,,,,,,,,,,,,,8,Incendiary,,,,,,,,,,,,,,,Incendiary,0,,,0,,,1,,,,,0,,,,,,,0,,,,,,,,,,,,,PGIS,-9,-9,0,-9,
27,1991,2,19,,0,,14,Australia,12,Australasia & Oceania,New South Wales,Sydney,-33.873651,151.20689,1,0,,,1,1,1,-9,,,0,1,0,7,Facility/Infrastructure Attack,,,,,7,Government (Diplomatic),46,Embassy/Consulate,,Australian- American association bldg *,14,Australia,7,Government (Diplomatic),46,Embassy/Consulate,,Australian- American association bldg *,217,United States,,,,,,,,,Unknown,,,,,,,0,,,0,,,,,,,,,,,,,8,Incendiary,,,,,,,,,,,,,,,Incendiary,0,,,0,,,1,,,,,0,,,,,,,0,,,,,,,,,,,,,PGIS,-9,-9,1,1,
28,1991,9,3,,0,,14,Australia,12,Australasia & Oceania,Western Australia,Perth,-31.952854,115.857339,1,0,,,1,1,1,0,,,0,1,0,3,Bombing/Explosion,,,,,2,Government (General),21,Government Building/Facility/Office,govt,western australian govts lotteries commission hq,14,Australia,,,,,,,,,,,,,,,,,Unknown,,,,,,,0,,,0,,,,,,,,,,,,,6,Explosives,16,Unknown Explosive Type,,,,,,,,,,,,,Explosive,0,,,0,,,1,,,,,0,,,,,,,0,,,,,,,,,,,,,PGIS,-9,-9,0,-9,
29,1991,9,3,,0,,14,Australia,12,Australasia & Oceania,Western Australia,Perth,-31.952854,115.857339,1,0,,,1,1,1,0,,,0,1,0,3,Bombing/Explosion,,,,,1,Business,2,Restaurant/Bar/Caf?,corfil cafe,,14,Australia,,,,,,,,,,,,,,,,,Unknown,,,,,,,0,,,0,,,,,,,,,,,,,6,Explosives,16,Unknown Explosive Type,,,,,,,,,,,,,Explosive,0,,,0,,,1,,,,,0,,,,,,,0,,,,,,,,,,,,,PGIS,-9,-9,0,-9,
30,1992,1,11,,0,,14,Australia,12,Australasia & Oceania,Queensland,Brisbane,-27.470933,153.023502,1,0,,,1,1,1,-9,,,0,1,0,7,Facility/Infrastructure Attack,,,,,7,Government (Diplomatic),46,Embassy/Consulate,U.S. State Dept,U.S. Consulate,217,United States,,,,,,,,,,,,,,,,,Unknown,,,,,,,0,,,0,,,,,,,,,,,,,8,Incendiary,,,,,,,,,,,,,,,Incendiary,0,,,0,,,1,,,,,0,,,,,,,0,,,,,,,,,,,,,PGIS,-9,-9,1,1,
31,1992,4,5,,0,,14,Australia,12,Australasia & Oceania,Australian Capital Territory,Canberra,-35.308236,149.124224,1,0,,,1,1,1,-9,,,0,1,0,9,Unknown,,,,,7,Government (Diplomatic),46,Embassy/Consulate,Iran State Dept,Iranian Embassy,94,Iran,,,,,,,,,,,,,,,,,Anti-Iran Government Exiles,,,,,,,0,,,0,15,,,,,,,,,,,,13,Unknown,,,,,,,,,,,,,,,,0,,,3,,,1,,,,,0,,,,,,,0,,,,,,,,,,,,,PGIS,-9,-9,1,1,
32,1992,7,28,,0,,14,Australia,12,Australasia & Oceania,Victoria,Melbourne,-37.813187,144.96298,1,0,,,1,1,1,-9,,,0,0,0,2,Armed Assault,,,,,6,Airports & Aircraft,43,Airline Officer/Personnel,Ansett Airlines,Armored Van,14,Australia,,,,,,,,,,,,,,,,,Unknown,,,,,,,0,,,0,,,,,,,,,,,,,5,Firearms,3,Handgun,,,,,,,,,,,,,Pistol,1,,,1,,,1,,,,,0,,,,,,,0,,,,,,,,,,,,,PGIS,-9,-9,0,-9,
33,1992,11,12,,0,,14,Australia,12,Australasia & Oceania,Northern Territory,Darwin,-12.46282,130.841769,1,0,,,1,1,1,-9,,,0,1,0,9,Unknown,,,,,7,Government (Diplomatic),46,Embassy/Consulate,Indonesia State Dept,Indonesian Consulate,93,Indonesia,,,,,,,,,,,,,,,,,East Timorese extremists,,,,,,,0,,,0,120,,,,,,,,,,,,13,Unknown,,,,,,,,,,,,,,,,0,,,0,,,1,,,,,0,,,,,,,0,,,,,,,,,,,,,PGIS,1,0,1,1,
34,1994,1,28,,0,,14,Australia,12,Australasia & Oceania,New South Wales,Sydney,-33.873651,151.20689,1,0,,,1,1,1,0,,,0,1,0,7,Facility/Infrastructure Attack,,,,,7,Government (Diplomatic),46,Embassy/Consulate,Mexico State Sept.,Mexican Consulate,130,Mexico,,,,,,,,,,,,,,,,,Zapatista National Liberation Army,,,,,,,0,,,0,,,,,,,,,,,,,9,Melee,21,Blunt Object,8,Incendiary,,,,,,,,,,,Bricks; Incendiary,0,0,,0,0,,1,,,,,0,,,,,,,0,,,,,,,,,,,,,PGIS,1,0,1,1,
35,1994,3,2,,0,,14,Australia,12,Australasia & Oceania,,Adelaide,-34.928726,138.599945,1,0,,,1,1,1,0,,,0,1,0,3,Bombing/Explosion,,,,,2,Government (General),21,Government Building/Facility/Office,National Crime Authority,Office,14,Australia,,,,,,,,,,,,,,,,,Unknown,,,,,,,0,,,0,,,,,,,,,,,,,6,Explosives,9,Letter Bomb,,,,,,,,,,,,,Package bomb,1,0,,5,0,,1,,,,,0,,,,,,,0,,,,,,,,,,,,,PGIS,-9,-9,0,-9,
36,1994,3,14,,0,,14,Australia,12,Australasia & Oceania,Victoria,Melbourne,-37.813187,144.96298,1,0,,,1,1,1,-9,,,0,1,0,3,Bombing/Explosion,,,,,14,Private Citizens & Property,82,Labor Union Related,Unknown,Greek-Australian Organization,14,Australia,,,,,,,,,,,,,,,,,Unknown,,,,,,,0,,,0,,,,,,,,,,,,,6,Explosives,16,Unknown Explosive Type,,,,,,,,,,,,,Explosive,0,0,,0,0,,1,,,,,0,,,,,,,0,,,,,,,,,,,,,PGIS,-9,-9,0,-9,
37,1994,3,18,,0,,14,Australia,12,Australasia & Oceania,New South Wales,Sydney,-33.873651,151.20689,1,0,,,1,1,1,-9,,,0,1,0,7,Facility/Infrastructure Attack,,,,,15,Religious Figures/Institutions,86,Place of Worship,Greek Orthodox Church,St. Efimias Greek Orthodox Church,14,Australia,,,,,,,,,,,,,,,,,Unknown,,,,,,,0,,,0,,,,,,,,,,,,,8,Incendiary,,,,,,,,,,,,,,,Incendiary,0,0,,0,0,,1,,,,,0,,,,,,,0,,,,,,,,,,,,,PGIS,-9,-9,0,-9,
38,1994,3,25,,0,,14,Australia,12,Australasia & Oceania,Victoria,Melbourne,-37.813187,144.96298,1,0,,,1,1,1,-9,,,0,1,0,9,Unknown,,,,,7,Government (Diplomatic),46,Embassy/Consulate,Germany State Dept.,German Consulate,75,Germany,,,,,,,,,,,,,,,,,Kurds,,,,,,,0,,,0,,,,,,,,,,,,,13,Unknown,,,,,,,,,,,,,,,,0,0,,0,0,,1,,,,,0,,,,,,,0,,,,,,,,,,,,,PGIS,-9,-9,1,1,
39,1994,9,5,,0,,14,Australia,12,Australasia & Oceania,Australian Capital Territory,Canberra,-35.308236,149.124224,1,0,,,1,1,1,0,,,0,1,0,1,Assassination,,,,,2,Government (General),15,Politician or Political Party Movement/Meeting/Rally,New South Wales State Labor PNP & Viet Vet,"John Newman, 49",14,Australia,,,,,,,,,,,,,,,,,U/I Asian Gang,,,,,,,1,,,0,,,,,,,,,,,,,5,Firearms,4,Rifle/Shotgun (non-automatic),,,,,,,,,,,,,Rifle - .22 caliber,0,0,,0,0,,0,,,,,0,,,,,,,0,,,,,,,,,,,,,PGIS,-9,-9,0,-9,
40,1994,9,19,,0,,14,Australia,12,Australasia & Oceania,Victoria,Melbourne,-37.813187,144.96298,1,0,,,1,1,1,-9,,,0,1,0,3,Bombing/Explosion,,,,,14,Private Citizens & Property,113,Alleged Informant,Unknown,"Chan Yuk-Ng, Student & alleged police informant.",89,Hong Kong,,,,,,,,,,,,,,,,,Unknown,,,,,,,0,,,0,,,,,,,,,,,,,6,Explosives,9,Letter Bomb,,,,,,,,,,,,,Letter bomb,0,0,,1,0,,1,,,,,0,,,,,,,0,,,,,,,,,,,,,PGIS,-9,-9,1,1,
41,1994,10,13,,0,,14,Australia,12,Australasia & Oceania,South Australia,Gawler,-34.59954,138.749141,1,0,,,1,1,1,-9,,,0,1,0,3,Bombing/Explosion,,,,,14,Private Citizens & Property,67,Unnamed Civilian/Unspecified,Unk,U/1  27 yr old man,14,Australia,,,,,,,,,,,,,,,,,Unknown,,,,,,,0,,,0,,,,,,,,,,,,,6,Explosives,9,Letter Bomb,,,,,,,,,,,,,Package bomb,1,,,2,,,1,,,,,0,,,,,,,0,,,,,,,,,,,,,PGIS,-9,-9,0,-9,
42,1994,10,25,,1,10/26/1994,14,Australia,12,Australasia & Oceania,Western Australia,Perth,-31.952854,115.857339,1,0,,,1,1,1,-9,,,0,1,0,5,Hostage Taking (Barricade Incident),,,,,3,Police,22,"Police Building (headquarters, station, school)",Police Dept,Main Police Station,14,Australia,,,,,,,,,,,,,,,,,Unknown,,,,,,,0,,,0,1,,,,,,,,,,,,5,Firearms,3,Handgun,,,,,,,,,,,,,Handguns (2),1,,,0,,,1,,,,,1,1,0,0,1,,,0,,,,,,,,,,,,,PGIS,-9,-9,0,-9,
43,1995,6,3,,0,,14,Australia,12,Australasia & Oceania,Queensland,Townsville,-19.257622,146.817879,1,0,,,1,1,1,-9,,,0,1,0,9,Unknown,,,,,14,Private Citizens & Property,80,Memorial/Cemetery/Monument,Aborigines,Grave Marker of Aboriginal Leader Eddie Mabo,14,Australia,,,,,,,,,,,,,,,,,Neo-Nazi extremists,,,,,,,1,,,0,,,,,,,,,,,,,13,Unknown,,,,,,,,,,,,,,,,0,,,0,,,1,,,,,0,,,,,,,0,,,,,,,,,,,,,PGIS,-9,-9,0,-9,
44,1995,6,17,,0,,14,Australia,12,Australasia & Oceania,Western Australia,Perth,-31.952854,115.857339,1,0,,,1,1,1,0,,,0,1,0,7,Facility/Infrastructure Attack,,,,,7,Government (Diplomatic),46,Embassy/Consulate,French State Dept.,French Consulate in Perth,69,France,,,,,,,,,,,,,,,,,Pacific Popular Front,,,,,,,0,,,0,2,,,,,,,,,,,,8,Incendiary,,,,,,,,,,,,,,,Incendiary,0,,,0,,,1,,,,,0,,,,,,,0,,,,,,,,,,,,,PGIS,0,1,1,1,
45,1995,6,22,,0,,14,Australia,12,Australasia & Oceania,New South Wales,Sydney,-33.873651,151.20689,1,0,,,1,1,1,0,,,0,1,0,3,Bombing/Explosion,,,,,1,Business,2,Restaurant/Bar/Caf?u/l Serbian Restaurant,u/l Serbian Restaurant,,1001,Serbia,,,,,,,,,,,,,,,,,Unknown,,,,,,,0,,,0,,,,,,,,,,,,,8,Incendiary,,,6,Explosives,16,Unknown Explosive Type,,,,,,,,,Incendiary; Explosive,0,,,0,,,1,,,,,0,,,,,,,0,,,,,,,,,,,,,PGIS,-9,-9,1,1,
46,1995,7,21,,0,,14,Australia,12,Australasia & Oceania,Australian Capital Territory,Canberra,-35.308236,149.124224,1,0,,,1,1,1,-9,,,0,1,0,9,Unknown,,,,,7,Government (Diplomatic),46,Embassy/Consulate,French Gov't,Embassy,69,France,,,,,,,,,,,,,,,,,Anti-Nuclear extremists,,,,,,,0,,,0,6,,,,,,,,,,,,13,Unknown,,,,,,,,,,,,,,,,0,,,0,,,1,,,,,0,,,,,,,0,,,,,,,,,,,,,PGIS,-9,-9,1,1,
47,1995,9,8,,0,,14,Australia,12,Australasia & Oceania,Australian Capital Territory,Canberra,-35.308236,149.124224,1,0,,,1,1,1,-9,,,0,0,0,9,Unknown,,,,,1,Business,7,Retail/Grocery/Bakery,Unk,Bakery products,69,France,,,,,,,,,,,,,,,,,Unknown,,,,,,,0,,,0,,,,,,,,,,,,,13,Unknown,,,,,,,,,,,,,,,,0,,,0,,,0,,,,,0,,,,,,,0,,,,,,,,,,,,,PGIS,-9,-9,1,1,
48,1996,8,3,,0,,14,Australia,12,Australasia & Oceania,New South Wales,Coffs Harbour,-30.296312,153.115672,1,0,,,1,1,1,0,,,0,1,0,3,Bombing/Explosion,,,,,2,Government (General),21,Government Building/Facility/Office,Government,Offices,14,Australia,,,,,,,,,,,,,,,,,Unknown,,,,,,,0,,,0,,,,,,,,,,,,,6,Explosives,31,Pipe Bomb,,,,,,,,,,,,,,0,,,0,,,1,,,,,0,,,,,,,0,,,,,,,,,,,,,PGIS,-9,-9,0,-9,
49,1996,8,15,,0,,14,Australia,12,Australasia & Oceania,South Australia,Adelaide,-34.928726,138.599945,1,0,,,1,1,1,-9,,,0,1,0,2,Armed Assault,,,,,1,Business,,,unknown,workers,14,Australia,,,,,,,,,,,,,,,,,Unknown,,,,,,,0,,,0,2,,,,,,,,,,,,5,Firearms,5,Unknown Gun Type,,,,,,,,,,,,,Firearm,2,,,1,,,1,,,,,0,,,,,,,0,,,,,,,,,,,,,PGIS,-9,-9,0,-9,
50,1996,10,23,,0,,14,Australia,12,Australasia & Oceania,New South Wales,Sydney,-33.873651,151.20689,1,0,,,1,1,1,0,,,0,1,0,3,Bombing/Explosion,,,,,19,Transportation,102,Subway,unknown,Subway system,14,Australia,,,,,,,,,,,,,,,,,Unknown,,,,,,,0,,,0,,,,,,,,,,,,,6,Explosives,16,Unknown Explosive Type,,,,,,,,,,,,,Explosive,0,,,0,,,1,,,,,0,,,,,,,0,,,,,,,,,,,,,PGIS,-9,-9,0,-9,
51,1996,10,27,,0,,14,Australia,12,Australasia & Oceania,New South Wales,Sydney,-33.873651,151.20689,1,0,,,1,1,1,0,,,0,1,0,3,Bombing/Explosion,,,,,19,Transportation,102,Subway,unknown,subway system,14,Australia,,,,,,,,,,,,,,,,,Unknown,,,,,,,0,,,0,,,,,,,,,,,,,6,Explosives,16,Unknown Explosive Type,,,,,,,,,,,,,Explosive,0,,,0,,,1,3,Minor (likely < $1 million),12000,,0,,,,,,,0,,,,,,,,,,,,,PGIS,-9,-9,0,-9,
52,1996,10,31,,0,,14,Australia,12,Australasia & Oceania,New South Wales,Sydney,-33.873651,151.20689,1,0,,,1,1,1,0,,,0,1,0,3,Bombing/Explosion,,,,,19,Transportation,102,Subway,unknown,subway system,14,Australia,,,,,,,,,,,,,,,,,Unknown,,,,,,,0,,,0,,,,,,,,,,,,,6,Explosives,16,Unknown Explosive Type,,,,,,,,,,,,,Explosive,0,,,0,,,1,,,,,0,,,,,,,0,,,,,,,,,,,,,PGIS,-9,-9,0,-9,
53,1997,2,26,,0,,14,Australia,12,Australasia & Oceania,New South Wales,Sydney,-33.873651,151.20689,1,0,,,1,1,1,0,,,0,1,0,8,Unarmed Assault,,,,,14,Private Citizens & Property,74,Marketplace/Plaza/Square,Unk,Shopping Center,14,Australia,,,,,,,,,,,,,,,,,Unknown,,,,,,,0,,,0,,,,,,,,,,,,,2,Chemical,,,,,,,,,,,,,,,Gas,0,,,4,,,1,,,,,0,,,,,,,0,,,,,,,,,,,,,PGIS,-9,-9,0,-9,
54,1997,2,28,,0,,14,Australia,12,Australasia & Oceania,New South Wales,Sydney,-33.873651,151.20689,1,0,,,1,1,1,0,,,0,1,0,8,Unarmed Assault,,,,,1,Business,7,Retail/Grocery/Bakery,Cole's Supermarket,Supermarket,14,Australia,,,,,,,,,,,,,,,,,Unknown,,,,,,,0,,,0,,,,,,,,,,,,,2,Chemical,,,,,,,,,,,,,,,Gas,0,,,19,,,1,,,,,0,,,,,,,0,,,,,,,,,,,,,PGIS,-9,-9,0,-9,
55,1997,8,21,,0,,14,Australia,12,Australasia & Oceania,Australian Capital Territory,Canberra,-35.308236,149.124224,1,0,,,1,1,1,0,,,0,1,0,3,Bombing/Explosion,,,,,2,Government (General),18,"Government Personnel (excluding police, military)",Gov't,Residence of official,14,Australia,,,,,,,,,,,,,,,,,Unknown,,,,,,,0,,,0,,,,,,,,,,,,,6,Explosives,16,Unknown Explosive Type,,,,,,,,,,,,,Explosive,0,,,0,,,1,,,,,0,,,,,,,0,,,,,,,,,,,,,PGIS,-9,-9,0,-9,
56,1997,9,21,,0,,14,Australia,12,Australasia & Oceania,New South Wales,Sydney,-33.873651,151.20689,1,0,,,1,1,1,0,,,0,0,0,3,Bombing/Explosion,,,,,11,Maritime,57,Civilian Maritime,Narrabeen,Ferry,14,Australia,,,,,,,,,,,,,,,,,Unknown,,,,,,,0,,,0,,,,,,,,,,,,,6,Explosives,16,Unknown Explosive Type,,,,,,,,,,,,,Explosive,0,,,0,,,1,,,,,0,,,,,,,0,,,,,,,,,,,,,PGIS,-9,-9,0,-9,
57,1998,9,22,,0,,14,Australia,12,Australasia & Oceania,Northern Territory,Kakudu National Park,-12.673648,132.81754,1,0,This incident occurred at the Kakadu National Park.,"09/22/1998: The Darwin office of Australia's largest uranium miner was badly damaged in a firebomb attack. Three petrol-filled Molotov cocktails were found at the suburban office of Energy Resources Australia after the fire, which caused damaged estimated at $100,000. No one was injured or killed, and no group claimed responsibility for the attack.",1,1,1,0,,,0,1,0,7,Facility/Infrastructure Attack,,,,,1,Business,10,Mining,Energy Resources Australia,Jabiluka mine,14,Australia,,,,,,,,,,,,,,,,,Unknown,,,,,,Unknown,0,,,0,,0,0,,,,,,,,,,8,Incendiary,19,Molotov Cocktail/Petrol Bomb,,,,,,,,,,,,,Three petrol-filled Molotov cocktails were found at the scene.,0,0,0,0,0,0,1,3,Minor (likely < $1 million),100000,,0,,,,,,,,,,,,,,,,,"�Firebomb wrecks uranium mine office,?The Australian, September 22, 1998.","�Mine Site Owner in Crossfire,?The Age, September 22, 1998.","�Bombs Fail to Win Support for Cause,?The Australian, September 22, 1998.",CETIS,-9,-9,0,-9,
58,1998,11,1,,0,,14,Australia,12,Australasia & Oceania,New South Wales,Lakemba,-33.919568,151.07683,1,0,,"11/01/1998: Approximately 18 shots were fired at the Lakemba police station in Sydney, Australia. There were no casualties and no one claimed responsibility for the attack.",1,1,1,0,,,0,1,0,2,Armed Assault,,,,,3,Police,22,"Police Building (headquarters, station, school)",Australian Police,"Lakemba Police Station in Sydney, Australia",14,Australia,,,,,,,,,,,,,,,,,Unknown,,,,,,Unknown,0,,,0,,0,0,,,,,,,,,,5,Firearms,2,Automatic or Semi-Automatic Rifle,,,,,,,,,,,,,,0,0,0,0,0,0,1,4,Unknown,,,0,,,,,,,,,,,,,,,,,"�Anarchy pulls the trigger,?The Daily Telegraph (Sydney, Australia), November 1, 1998.",,,CETIS,-9,-9,0,-9,
59,1998,12,2,,0,,14,Australia,12,Australasia & Oceania,New South Wales,Sydney,-33.873651,151.20689,1,0,,"12/02/1998: In a series of related incidents, a mail bomb was delivered to the home of federal privacy commissioner, Moira Scollay, in Sydney, Australia. There were no casualties in this incident. Several other mail bombs were also mailed out around Australia and twenty-two additional parcels were discovered at a Canberra mail center. Colin George Dunstan, a disgruntled former Australian Taxation Office employee, was the suspected perpetrator.",0,1,1,1,2,Other Crime Type,1,1,0,3,Bombing/Explosion,,,,,2,Government (General),18,"Government Personnel (excluding police, military)",Government Official,"Moira Scollay, Federal Privacy Commissioner, in Sydney",14,Australia,,,,,,,,,,,,,,,,,Unknown,,,,,,Unknown,1,,,1,1,0,0,,,,,,,,,,6,Explosives,9,Letter Bomb,,,,,,,,,,,,,,0,0,0,0,0,0,1,3,Minor (likely < $1 million),,,0,,,,,,,,,,,,,,,,"This was one of four related attacks (cf. 199812020001-3; 199812030003). These parcels let to bomb scares the following day in Melbourne, Sydney, and the Northern Territory led to the evacuation of major buildings. These scares turned out to be false alarms.","""Tax office evacuated by bomb scare; Darwin Parliament also cleared out,"" Associated Press Worldstream, December 02, 1998.","Peter Spielmann, �Bomb scares evacuate NT Parliament, Sydney and Melbourne towers With AP Pho,?Associated Press Worldstream, December 3, 1998.",,CETIS,-9,-9,0,-9,"199812020001, 199812020002, 199812020003, 199812160002"
60,1998,12,2,,0,,14,Australia,12,Australasia & Oceania,Australian Capital Territory,Canberra,-35.308236,149.124224,1,0,,"12/02/1998: In a series of related incidents, a mail bomb exploded in a mail center in Canberra, Australia. The explosion injured two postal workers and caused minor damage to the center. Twenty-one additional letter bombs were found at the Canberra mail center after the one bomb exploded, setting off a nationwide alert. Most of the parcels had been addressed to current or former staff at the Australian Taxation Office. Several other mail bombs were also mailed out around Australia. Colin George Dunstan, a disgruntled former Australian Taxation Office employee, was the suspected perpetrator.",0,1,1,1,2,Other Crime Type,1,1,0,3,Bombing/Explosion,,,,,2,Government (General),21,Government Building/Facility/Office,Australian Postal Service,"Mail center in Canberra, Australia",14,Australia,,,,,,,,,,,,,,,,,Unknown,,,,,,Unknown,1,,,1,1,0,0,,,,,,,,,,6,Explosives,9,Letter Bomb,,,,,,,,,,,,,,0,0,0,2,0,0,1,3,Minor (likely < $1 million),,,0,,,,,,,,,,,,,,,,"This was one of four related attacks (cf. 199812020001-3; 199812030003). These parcels let to bomb scares the following day in Melbourne, Sydney, and the Northern Terrority led to the evacuation of major buildings. These scares turned out to be false alarms.","�Police tighten net on bomber,?The Daily Telegraph, December 3, 1998.","Peter Spielmann, �Bomb scares evacuate NT Parliament, Sydney and Melbourne towers With AP Pho,?The Associated Press Worldstream, December 3, 1998.","�Australian police begin manhunt for letter-bomb suspect,?Deseret News, December 3, 1998.",CETIS,-9,-9,0,-9,"199812020002, 199812020001, 199812020003, 199812160002"
61,1998,12,2,,0,,14,Australia,12,Australasia & Oceania,Victoria,Melbourne,-37.813187,144.96298,1,0,,"12/02/1998: In a series of related incidents, a mail bomb was delivered to the home former federal sex discrimination commissioner, Sue Walpole in Melbourne, Australia. There were no casualties in this incident. Several other mail bombs were also mailed out around Australia and twenty-two additional parcels were discovered at a Canberra mail center. Colin George Dunstan, a disgruntled former Australian Taxation Office employee, was the suspected perpetrator.",0,1,1,1,2,Other Crime Type,1,1,0,3,Bombing/Explosion,,,,,2,Government (General),18,"Government Personnel (excluding police, military)",Former Government Official,"Sue Walpole, former Federal Sex Discrimination Commissioner, in Melbourne",14,Australia,,,,,,,,,,,,,,,,,Unknown,,,,,,Unknown,1,,,1,1,0,0,,,,,,,,,,6,Explosives,9,Letter Bomb,,,,,,,,,,,,,,0,0,0,0,0,0,1,3,Minor (likely < $1 million),,,0,,,,,,,,,,,,,,,,"This was one of four related attacks (cf. 199812020001-3; 199812030003). These parcels let to bomb scares the following day in Melbourne, Sydney, and the Northern Terrority led to the evacuation of major buildings. These scares turned out to be false alarms.","""Tax office evacuated by bomb scare; Darwin Parliament also cleared out,"" Associated Press Worldstream, December 02, 1998.","Peter Spielmann, �Bomb scares evacuate NT Parliament, Sydney and Melbourne towers With AP Pho,?Associated Press Worldstream, December 3, 1998.",,CETIS,-9,-9,0,-9,"199812020003, 199812020001, 199812020002, 199812160002"
62,1998,12,3,,0,,14,Australia,12,Australasia & Oceania,Australian Capital Territory,Waitara,-33.711025,151.104299,1,0,,"12/03/1998: In a series of related incidents, a mail bomb was delivered to the home of a public servant in Queensland. There were no casualties in this incident. Several other mail bombs were also mailed out around Australia and twenty-two additional parcels were discovered at a Canberra mail center. Colin George Dunstan, a disgruntled former Australian Taxation Office employee, was the suspected perpetrator.",0,1,1,1,2,Other Crime Type,1,1,0,3,Bombing/Explosion,,,,,2,Government (General),18,"Government Personnel (excluding police, military)",Government Employee,Public servant in Queensland,14,Australia,,,,,,,,,,,,,,,,,Unknown,,,,,,Unknown,1,,,1,1,0,0,,,,,,,,,,6,Explosives,9,Letter Bomb,,,,,,,,,,,,,,0,0,0,0,0,0,1,3,Minor (likely < $1 million),,,0,,,,,,,,,,,,,,,,"This was one of four related attacks (cf. 199812020001-3; 199812030003). These parcels let to bomb scares the following day in Melbourne, Sydney, and the Northern Terrority led to the evacuation of major buildings. These scares turned out to be false alarms.","""Tax office evacuated by bomb scare; Darwin Parliament also cleared out,"" Associated Press Worldstream, December 02, 1998.","Peter Spielmann, �Bomb scares evacuate NT Parliament, Sydney and Melbourne towers With AP Pho,?Associated Press Worldstream, December 3, 1998.",,CETIS,-9,-9,0,-9,"199812030002, 199812020001, 199812020002, 199812020003"
63,2000,10,17,,0,,14,Australia,12,Australasia & Oceania,New South Wales,Normahurst,-33.724162,151.085374,1,0,This incident was took place between the Normanhurst and Thornleigh suburbs of Sydney.,"10/17/2000: A sniper shot at a train traveling between the between the Normanhurst and Thornleigh suburbs of Sydney, Australia. No casualties were reported as a result of the incident. It was unknown who was responsible for the incident.",0,1,1,1,2,Other Crime Type,0,0,0,2,Armed Assault,,,,,19,Transportation,100,Train/Train Tracks/Trolley,Cityrail,Cityrail Train Traveling Between the Normanhurst and Thornleigh suburbs of Sydney,14,Australia,,,,,,,,,,,,,,,,,Unknown,,,,,,Unknown,0,,,0,1,0,0,,,,,,,,,,5,Firearms,4,Rifle/Shotgun (non-automatic),,,,,,,,,,,,,,0,0,0,0,0,0,1,3,Minor (likely < $1 million),,A train window was broken in the incident.,0,,,,,,,,,,,,,,,,"A similar incident was reported to have occurred on October 15, 2000.","�Sniper hits two trains in five days,?The Daily Telegraph, October 19, 2000.",,,CETIS,-9,-9,0,-9,
64,2001,9,23,,0,,14,Australia,12,Australasia & Oceania,Queensland,Brisbane,-27.470933,153.023502,1,0,,"09/23/2001: A Brisbane, Australia mosque was ruined in a suspected arson attack. No group claimed responsibility.",1,1,1,1,2,Other Crime Type,0,1,0,7,Facility/Infrastructure Attack,,,,,15,Religious Figures/Institutions,86,Place of Worship,Islamic Mosque,Islamic mosque in Brisbane,14,Australia,,,,,,,,,,,,,,,,,Unknown,,,,,,Unknown,0,,,0,,0,0,,,,,,,,,,8,Incendiary,18,Arson/Fire,,,,,,,,,,,,,,0,0,0,0,0,0,1,3,Minor (likely < $1 million),,Reports indicated that the attack devastated the building.,0,,,,,,,,,,,,,,,,,"""Mosque Attack Calm Plea,?Herald Sun, September 24, 2001.","""Mosque Attack 'Terrorism on Smaller Scale',?Townsville Sun, September 24, 2001.",,CETIS,-9,-9,0,-9,
65,2001,10,15,,0,,14,Australia,12,Australasia & Oceania,Victoria,Melbourne,-37.813187,144.96298,1,0,,"10/15/2001:  A letter delivered by mail to the U.S. Consulate in Melbourne, Australia contained an unknown chemical agent.  No injuries were reported in the attack.",1,1,1,0,,,0,0,0,8,Unarmed Assault,,,,,7,Government (Diplomatic),46,Embassy/Consulate,U.S. State Department,"U.S. Consulate in Melbourne, Australia.",217,United States,,,,,,,,,,,,,,,,,Unknown,,,,,,Unknown.,0,,,0,,0,0,,,,,,,,,,2,Chemical,,,,,,,,,,,,,,,Unknown chemical agent.,0,0,0,0,0,0,0,,,,,0,,,,,,,0,,,,,,,,,,"�US Consulate Evacuated in Chemical Scare,?Yahoo News, October 15, 2001.",,,CETIS,-9,-9,1,1,
66,2006,4,8,,0,,14,Australia,12,Australasia & Oceania,Queensland,Broadbeach,-28.0291,153.431388,1,0,,"04/08/2006: The mobile phone shop of former Shapelle Corby backer Ron Bakir was firebombed at 6:00 a.m. when a man bashed the glass doors of the shop with a rock before dropping a cigarette into a canister of fuel on the footpath outside in Broadbeach, Australia. No group claimed responsibility for the attack.",1,1,1,1,2,Other Crime Type,0,1,0,3,Bombing/Explosion,,,,,1,Business,7,Retail/Grocery/Bakery,Business of Broadbeach,Mobile phone shop of Ron Bakir in Broadbeach,14,Australia,,,,,,,,,,,,,,,,,Unknown,,,,,,Unknown,0,,,0,1,0,0,,,,,,,,,,8,Incendiary,20,Gasoline or Alcohol,,,,,,,,,,,,,The fire was caused by a plastic container of fuel and lit with a cigarette.,0,0,0,0,0,0,1,4,Unknown,,The fire damaged the door but was put out before the container exploded.,0,,,,,,,,,,,,,,,,No one was in the store at the time. Ron Bakir could not suggest a potential reason for this attack. He had previously praised people of the Gold Coast for ignoring calls to join race riots.,"Weston, Paul, �Firebomb raid on Corby's ex-backer,?The Sunday Mail (Australia), April 09, 2006.","�Quick News,?Sunday Tasmanian (Australia), April 09, 2006.","�Attack mystifies Bakir,?Northern Territory News (Australia), April 09, 2006.",CETIS,-9,-9,0,-9,
67,2006,8,1,,0,,14,Australia,12,Australasia & Oceania,New South Wales,Paramatta,-33.815128,151.003155,1,0,,"08/01/2006: A group of Middle Eastern men stoned Sydney, Australia�s Parramatta Synagogue�s roof and windows and damaged cars nearby. No group has claimed responsiblity for this attack.",1,1,1,0,,,0,1,0,7,Facility/Infrastructure Attack,,,,,15,Religious Figures/Institutions,86,Place of Worship,Synagogue,Parramatta Synagogue,14,Australia,,,,,,,,,,,,,,,,,Unknown,,,,,,Unknown,0,,,0,10,,0,,,,,,,,,,12,Other,21,Blunt Object,,,,,,,,,,,,,,0,0,0,,0,0,-9,,,,,0,,,,,,,,,,,,,,,,,"Russell Skelton and Sarah Smiles, �Sydney synagogue rocked by attack,?The Age, August 1, 2006.","�Synagogue is war victim,?The Daily Telegraph, August 1, 2006.",,CETIS,-9,-9,0,-9,
68,2008,4,21,,0,,14,Australia,12,Australasia & Oceania,Queensland,Vale View,-27.661735,151.897583,1,0,"The attempted bombing took place in Federation Park on the Drayton Connection Road, near Vale View south of Toowoomba, Queensland, Australia.","04/21/2008: On Monday, a 30 mm pipe bomb rigged with external batteries and a mobile phone was detonated by the police bomb squad unit after it was found by council workers in Federation Park on the Drayton Connection Road, near Vale View south of Toowoomba, Queensland, Australia. No claim of responsibility was made for the attempted bombing, however on 04/22/2008 on Tuesday, executed a search warrant at a home in Kent Street at Oakey and allegedly found evidence of a home-made explosive device. A 21-year-old man was arrested and charged with one count of attempting to damage property by explosives.",1,1,1,0,,,0,0,0,3,Bombing/Explosion,,,,,14,Private Citizens & Property,79,"Public Area (garden, parking lot, garage, beach, public building, camp)",,Federation Park,14,Australia,,,,,,,,,,,,,,,,,Unknown,,,,,,The specific motive for the attack is unknown or was not reported.,0,,,0,1,1,0,,,,,,,,,,6,Explosives,12,Remote Trigger,,,,,,,,,,,,,"A mobile phone-triggered, battery-powered, 30 mm pipe was used in the attack.",0,0,0,0,0,0,0,,,,,0,,,,,,,,,,,,,,,,,"News.com.au, ""Police Destroy Pipe Bomb Found at Toowoomba Park,"" http://news.com.au (accessed April 22, 2008).","AAP Newsfeed, ""Qld: Man Charged Over Pipe Bomb Found in Park,"" Lexis Nexis, AAP Newsfeed, April 23, 2008.",,ISVG,-9,-9,0,-9,
69,2008,12,8,,0,,14,Australia,12,Australasia & Oceania,Western Australia,Joondalup,-31.743357,115.764172,1,0,Joondalup Police Station,"12/08/2008: On Monday, a Holden Rodeo ute vehicle carrying a 220-liter fuel tank was backed into the Joondalup police station and set aflame. The attack damaged two offices, one of which was the inspector's District Office. No casualties were reported.",1,1,1,0,,,0,1,0,7,Facility/Infrastructure Attack,,,,,3,Police,22,"Police Building (headquarters, station, school)",,Joondalup Police station,14,Australia,,,,,,,,,,,,,,,,,Unknown,,,,,,The specific motive for the attack is unknown.,0,,,0,1,0,0,,,,,,,,,,8,Incendiary,20,Gasoline or Alcohol,,,,,,,,,,,,,A fuel tank was set ablaze in the attack.,0,0,0,0,0,0,1,4,Unknown,,The attack caused an unknown amount of property damage.,0,,,,,,,-9,,,,,,,,,,"ABC, ""Police Seeking Man Over Firebombings,"" http://www.abc.net.au/news/stories/2008/12/10/2442883.htm"" (December 10, 2008).","PerthNow, Cox, Nicole, ""Attack on Warwick Police Station Follows Joondalup Firebombing,"" http://www.news.com.au/perthnow/story/0,21598,24778930-2761,00.html (December 10, 2008).","PerthNow, Stanley, Warwick, ""Joondalup Police tation Damaged by Fire Attack,"" http://www.news.com.au/perthnow/story/0,21598,24772985-2761,00.html (December 09, 2009).",ISVG,-9,-9,0,-9,
70,2008,12,10,,0,,14,Australia,12,Australasia & Oceania,Western Australia,Joondalup,-31.743357,115.764172,1,0,"Warwick district, Joondalup Warwick Police station","12/10/2008: On Wednesday morning, at 0235, two private vehicles belonging to Warwick police officers were firebombed in Joondalup, Western Australia, Oceania, Australia.",1,1,1,0,,,0,1,0,7,Facility/Infrastructure Attack,,,,,3,Police,25,Police Security Forces/Officers,,The target were private vehicles of police officers in Warwick,14,Australia,,,,,,,,,,,,,,,,,Unknown,,,,,,The specific motive for the attack is unknown.,0,,,0,-99,0,0,,,,,,,,,,8,Incendiary,19,Molotov Cocktail/Petrol Bomb,,,,,,,,,,,,,A firebomb was used in the attack,0,0,0,0,0,0,1,4,Unknown,60000,Two private vehicles of Warwick police officers were firebounded.,0,,,,,,,-9,,,,,,,,,,"Watoday, Thomson, Chris, and Chalpat Sonti, ""Man Charged Over Joondalup Police Station Bombing,"" http://www.watoday.com.au/wa-news/man-charged-over-joondalup-police-station-bombing-20081210-6v6v.html?page=-1 (December 10, 2008).","ABC Premium News, ""Second Warwick Police Station Firebombed,"" LexisNexis Academic, ABC Premium News, December 10, 2008.",,ISVG,-9,-9,0,-9,
71,2009,10,8,,0,,14,Australia,12,Australasia & Oceania,New South Wales,Condell Park,-33.922832,151.011897,1,0,"The explosive was placed on the hood of a car on Market Street at Condell Park, Sydney, New South Wales, Australia.","10/08/2009: On Thursday night at 0100, in Market Street in Condell park, Sydney, New South Wales, Australia, an improvised explosive device placed on the hood of a car detonated, smashing the windows of two townhouses and destroying the vehicle. Investigator Mark Smith says it is not clear if the device was intended for the vehicle or the townhouses 10-15 meters away. No group claimed responsibility.",1,1,1,0,,,0,1,0,3,Bombing/Explosion,,,,,14,Private Citizens & Property,73,Vehicles/Transportation,,A civilian vehicle was targeted in the attack.,14,Australia,,,,,,,,,,,,,,,,,Unknown,,,,,,The specific motive for the attack is unknown.,0,,,0,-99,0,0,,,,,,,,,,6,Explosives,29,Sticky Bomb,,,,,,,,,,,,,An improvised explosive device placed  on the hood of a car was used in the attack.,0,0,0,0,0,0,1,4,Unknown,,Civilian townhouses were damaged and a vehicle was destroyed.,0,,,,,,,,,,,,,,,,,"Abc. Net,""Car, Houses Damaged by Homemade Bomb,"" http://www.abc.net.au/news/stories/2009/10/08/2707922.htm?section=australia(October 8, 2009).","Australian Associated Press,""Highlights of the AAP National Wire at 14:30, October Eight,"" LexisNexis Academic, Australian Associated Press, October 8, 2009",,ISVG,-9,-9,0,-9,
72,2010,2,4,,0,,14,Australia,12,Australasia & Oceania,Western Australia,Perth,-31.952854,115.857339,1,0,"The attack took place at a mosque in Queens Park, Perth.","02/04/2010: On Thursday night, in Queens Park, Perth, Western Australia, Australia, armed assailants fired upon a mosque, damaging the mosque but causing no casualties. No group claimed responsibility, although authorities believed Combat 18 was responsible.",1,1,1,0,,,0,1,0,2,Armed Assault,,,,,15,Religious Figures/Institutions,86,Place of Worship,,The target was a mosque.,14,Australia,,,,,,,,,,,,,,,,,Combat 18,,,,,,The specific motive for the attack is unknown.,1,,,0,-99,0,0,,,,,,,,,,5,Firearms,5,Unknown Gun Type,,,,,,,,,,,,,Unknown firearms were used in the attack.,0,0,0,0,0,0,1,3,Minor (likely < $1 million),,A mosque was damaged in the attack.,0,,,,,,,,,,,,,,,,,"National Counterterrorism Center, ""One Mosque Damaged in Armed Attack by Suspected Combat 18 in Perth, Western Australia, Australia,"" Worldwide Incidents Tracking System, July 9, 2010.","ABC Premium News, ""Shots Fired at Mosque,"" LexisNexis Academic, ABC News, February 10, 2010.","West Australian, ""Police Probe Mosque Attack,"" LexisNexis Academic, West Australian, February 11, 2010.",ISVG,1,1,0,1,
73,2013,9,2,,0,,14,Australia,12,Australasia & Oceania,Victoria,Melbourne,-37.808896,144.950421,1,0,The incident occurred in the West Melbourne area of the city.,"09/02/2013: Assailants set fire to Gran Turismo Autos, a luxury car showroom, in West Melbourne area, Melbourne city, Victoria state, Australia. The fire damaged several vehicles, but did not cause any casualties. The Felicity Ann Ryder Cell of the Informal Anarchist Federation claimed responsibility for the attack in a post online; however, police denied that the group was involved in the incident.",1,1,1,1,4,Lack of Intentionality,0,1,0,7,Facility/Infrastructure Attack,,,,,1,Business,7,Retail/Grocery/Bakery,Gran Turismo Autos,Car Dealership,14,Australia,,,,,,,,,,,,,,,,,Informal Anarchist Federation,Felicity Ann Ryder Cell,,,,,,0,,,0,-99,0,1,7,"Posted to website, blog, etc.",,,,,,,,8,Incendiary,18,Arson/Fire,,,,,,,,,,,,,,0,0,0,0,0,0,1,4,Unknown,-99,"Approximately a dozen luxury vehicles and $150,000 worth of stock at a neighboring apparel business were damaged in this attack.",0,,,,,,,,,,,,,,,,There is doubt that this incident meets terrorism-related criteria. Authorities suspected that the fire may have been accidentally started by a lit cigarette.,"""Anarchists claim responsibility for fire at luxury West Melbourne car dealership, but police have doubts,"" Herald Sun (Australia), September 3, 2013.","""Signs Of Life In Australia : A Chronology of Recent Anarchist & Anti-Colonial Activity Down Under,"" 325, May 7, 2014.",,START Primary Collection,1,1,0,1,
74,2014,2,24,,0,,14,Australia,12,Australasia & Oceania,Queensland,Logan,-27.639793,153.108516,1,0,,"02/24/2014: Assailants threw three homemade incendiary devices at the Logan Police District Headquarters in Logan City, southeast Queensland state, Australia. There were no casualties in the incident; however, one police vehicle suffered fire damage. No group claimed responsibility for the incident; however, sources attributed the attack to anarchists.",1,1,1,0,,,0,1,0,7,Facility/Infrastructure Attack,,,,,3,Police,22,"Police Building (headquarters, station, school)",Australian Federal Police (AFP),Logan District Headquarters,14,Australia,,,,,,,,,,,,,,,,,Anarchists,,,,,,"The specific motive is unknown; however, sources noted that the attack comes after an incident of police brutality which left an indigenous woman partly blind.",0,,,0,-99,0,0,,,,,,,,,,8,Incendiary,19,Molotov Cocktail/Petrol Bomb,,,,,,,,,,,,,Three Molotov cocktails were used in the attack.,0,0,0,0,0,0,1,3,Minor (likely < $1 million),-99,A police vehicle was damaged in this attack.,0,,,,,,,,,,,,,,,,,"""The Logan Police District Headquarters at Logan Central has been attacked with three homemade firebombs hurled,"" The Courier Mail (Australia), February 24, 2014.","""Signs Of Life In Australia : A Chronology of Recent Anarchist & Anti-Colonial Activity Down Under,"" 325, May 7, 2014.",,START Primary Collection,-9,-9,0,-9,
75,2014,5,18,,0,,14,Australia,12,Australasia & Oceania,New South Wales,Sydney,-33.888408,151.237218,1,0,The incident occurred in the Woollahra neighborhood of the city.,"05/18/2014: Assailants set fire to two vehicles on Queen street in Woollahra neighborhood, Sydney city, New South Wales state, Australia. There were no reported casualties in the attack. This was one of two coordinated attacks carried out by the Informal Anarchist Federation in Woollahra neighborhood on May 18, 2014. The Informal Anarchist Federation claimed responsibility for the incident, stating that the attack was carried out in retaliation to injustice.",1,1,1,0,,,1,1,0,7,Facility/Infrastructure Attack,,,,,14,Private Citizens & Property,73,Vehicles/Transportation,Not Applicable,Luxury Vehicles,14,Australia,,,,,,,,,,,,,,,,,Informal Anarchist Federation,,,,,,The Informal Anarchist Federation claimed responsibility for the incident and stated that the attack was carried out in retaliation to injustice.,0,,,0,-99,0,1,7,"Posted to website, blog, etc.",,,,,,,,8,Incendiary,18,Arson/Fire,,,,,,,,,,,,,,0,0,0,0,0,0,1,3,Minor (likely < $1 million),-99,Three luxury vehicles were damaged in this attack.,0,,,,,,,,,,,,,,,,,"""Luxury cars destroyed in random attacks in Woollahra,"" The Daily Telegraph (Australia), May 19, 2014.","""FAI militants set fire to three vehicles in Australia's New South Wales.,"" Jane's, June 10, 2014.","""Sydney : 3 Luxury Cars Torched By FAI/IRF (Australia),"" 325, May 19, 2014.",START Primary Collection,1,1,0,1,"201405180095, 201405180096"
76,2014,5,18,,0,,14,Australia,12,Australasia & Oceania,New South Wales,Sydney,-33.888408,151.237218,1,0,The incident occurred in the Woolahra neighborhood of the city.,"05/18/2014: Assailants set fire to a luxury vehicle on Moncur street in Woolahra neighborhood, Sydney city, New South Wales state, Australia. There were no reported casualties in the attack. This was one of two coordinated attacks carried out by the same group in Woolahra neighborhood on May 18, 2014. The Informal Anarchist Federation claimed responsibility for the incident.",1,1,1,0,,,1,1,0,7,Facility/Infrastructure Attack,,,,,14,Private Citizens & Property,73,Vehicles/Transportation,Not Applicable,Luxury Vehicle,14,Australia,,,,,,,,,,,,,,,,,Informal Anarchist Federation,,,,,,,0,,,0,-99,0,1,7,"Posted to website, blog, etc.",,,,,,,,8,Incendiary,18,Arson/Fire,,,,,,,,,,,,,,0,0,0,0,0,0,1,3,Minor (likely < $1 million),-99,A vehicle was damaged in this attack.,0,,,,,,,,,,,,,,,,,"""Luxury cars destroyed in random attacks in Woollahra,"" The Daily Telegraph (Australia), May 19, 2014.","""FAI militants set fire to three vehicles in Australia's New South Wales.,"" Jane's, June 10, 2014.","""Sydney : 3 Luxury Cars Torched By FAI/IRF (Australia),"" 325, May 19, 2014.",START Primary Collection,1,1,0,1,"201405180095, 201405180096"
77,2014,8,12,,0,,14,Australia,12,Australasia & Oceania,Victoria,Beechworth,-36.35772,146.696395,1,0,,"08/12/2014: Assailants set a private vehicle on fire that belonged to an Australian Federal Police (AFP) officer outside the police station in Beechworth town, Victoria state, Australia. There were no reported casualties in the attack. No group claimed responsibility for the incident.",1,1,1,0,,,0,1,0,7,Facility/Infrastructure Attack,,,,,3,Police,23,Police Patrol (including vehicles and convoys),Australian Federal Police (AFP),Car,14,Australia,,,,,,,,,,,,,,,,,Unknown,,,,,,,0,,,0,2,0,0,,,,,,,,,,8,Incendiary,20,Gasoline or Alcohol,,,,,,,,,,,,,Gasoline was used in the attack.,0,0,0,0,0,0,1,3,Minor (likely < $1 million),-99,A vehicle and a police station were damaged in this attack.,0,,,,,,,,,,,,,,,,,"""The ugly secret of a town's fire,"" Southern Highland News, October 25, 2014.",,,START Primary Collection,-9,-9,0,-9,
78,2014,9,23,,0,,14,Australia,12,Australasia & Oceania,Victoria,Melbourne,-37.814107,144.96328,1,0,,"09/23/2014: An assailant stabbed two police officers in Melbourne city, Victoria state, Australia. Authorities shot and killed the assailant and the two police officers were wounded in the attack. No group claimed responsibility for the incident; however, sources attributed the attack to an individual, identified as Abdul Numan Haider.",1,1,1,0,,,0,1,0,2,Armed Assault,,,,,3,Police,25,Police Security Forces/Officers,Australian Federal Police (AFP),Officers,14,Australia,,,,,,,,,,,,,,,,,Jihadi-inspired extremists,,,,,,"The specific motive is unknown; however, sources posited that prior to the attack the assailant, Abdul Numan Haider, had posted a message on Facebook, which criticized the Australian Federal Police (AFP) and alleged that they were at war with Islam.",0,,,1,1,0,0,,,,,,,,,,9,Melee,23,Knife or Other Sharp Object,,,,,,,,,,,,,,1,0,1,2,0,0,0,,,,,0,,,,,,,,,,,,,,,,,"""ISIS Lieutenant Emerges From Australian Red-Light District,"" The New York Times, September 26, 2014.","""Australian 'terror suspect' killed by police,"" Al Jazeera, September 24, 2014.","""IS claims it ordered knife attack,"" NEWS.com.au, November 22, 2014.",START Primary Collection,-9,-9,0,-9,
79,2014,11,3,,0,,14,Australia,12,Australasia & Oceania,New South Wales,Bankstown,-33.907092,151.057308,1,0,The incident occurred in the Greenacre neighborhood,"11/03/2014: Assailants opened fire on Rasoul Al-Musawi outside of an Islamic prayer center in Bankstown area, New South Wales state, Australia. Musawi, a Shia religious leader, was wounded in the attack. No group claimed responsibility for the incident; however, people chanting pro-Islamic State of Iraq and the Levant (ISIL) statements drove by the center just before the shooting.",1,1,1,0,,,0,1,0,2,Armed Assault,,,,,15,Religious Figures/Institutions,85,Religious Figure,Husainiyah Nabi Akram,Shiite Cleric: Rasoul al-Mousawi,95,Iraq,,,,,,,,,,,,,,,,,Unknown,,,,,,,0,,,0,-99,0,0,,,,,,,,,,5,Firearms,5,Unknown Gun Type,,,,,,,,,,,,,Pellets were used in the attack.,0,0,0,1,0,0,0,,,,,0,,,,,,,,,,,,,,,,,"""Religious leader shot outside Islamic centre in Greenacre following threats,"" Melbourne Age, November 3, 2014.","""Drive-by shooting in Sydney influenced by Islamic State, Abbott says,"" newsWall.co.za, November 4, 2014.",,START Primary Collection,-9,-9,1,1,
80,2014,12,2,,0,,14,Australia,12,Australasia & Oceania,New South Wales,Oberon,-33.704174,149.857408,1,0,,"12/02/2014: Assailants set fire to the Oberon NSW Slaughterhouse in Oberon town, New South Wales state, Australia. There were no reported casualties in the attack; however, the building was damaged in the attack. The Animal Liberation Front (ALF) claimed responsibility for the incident and stated that the attack was carried out in retaliation for profiting from animal abuse.",1,1,1,0,,,0,1,0,7,Facility/Infrastructure Attack,,,,,1,Business,9,Farm/Ranch,Oberon NSW Slaughterhouse,Slaughterhouse,14,Australia,,,,,,,,,,,,,,,,,Animal Liberation Front (ALF),,,,,,The Animal Liberation Front (ALF) claimed responsibility for the incident and stated that the attack was carried out in retaliation to the profiting from animal abuse.,0,,,0,-99,0,1,7,"Posted to website, blog, etc.",,,,,,,,8,Incendiary,18,Arson/Fire,,,,,,,,,,,,,,0,0,0,0,0,0,1,3,Minor (likely < $1 million),-99,A slaughterhouse was damaged in this attack.,0,,,,,,,,,,,,,,,,,"""Police investigate Oberon Abattoir fire,"" Western Advocate, December 3, 2014.","""News from the Frontlines,"" Bite Back, December 27, 2014.",,START Primary Collection,0,1,0,1,
81,2014,12,15,,0,,14,Australia,12,Australasia & Oceania,New South Wales,Sydney,-33.867979,151.211038,1,0,The incident occurred in the Martin Place neighborhood,"12/15/2014: An assailant, Mon Haron Monis, took 18 people hostage in the Lindt Chocolate cafe in Sydney city, New South Wales state, Australia. Five hostages were able to escape during standoff. After 16 hours, police stormed the cafe and freed the living hostages. In total, Monis and two hostages were killed and four other hostages were wounded in the attack and siege. No group claimed responsibility for the incident.",1,1,1,0,,,0,1,0,5,Hostage Taking (Barricade Incident),,,,,1,Business,2,Restaurant/Bar/Caf?Lindt Chocolate Cafe,Cafe,,14,Australia,,,,,,,,,,,,,,,,,Jihadi-inspired extremists,,,,,,,0,,,1,1,0,0,,,,,,,,,,5,Firearms,4,Rifle/Shotgun (non-automatic),,,,,,,,,,,,,A sawed-off shotgun was used in the attack.,3,0,1,4,0,0,1,3,Minor (likely < $1 million),-99,A Lindt chocolate shop was damaged in this attack.,1,18,0,16,,,,0,,,,,,6,Combination,16,"During the standoff, Monis had declared allegiance to the Islamic State of Iraq and the Levant (ISIL).","""Lone   gunman,   two hostages killed in Sydney cafe siege: police,"" Agence France Presse -- English, December 15, 2014.","""2 Hostages and Captor Are Dead in Siege at Sydney Cafe,"" New York Times, December 15, 2014.","""Sydney siege: How the hostage drama played out,"" The Sydney Morning Herald, December 21, 2014.",START Primary Collection,-9,-9,0,-9,
82,2015,1,24,,0,,14,Australia,12,Australasia & Oceania,Queensland,Toowoomba,-27.581562,151.933834,1,0,The incident occurred in the Harristown neighborhood.,"01/24/2015: A fire was set next to a mosque in Harristown neighborhood, Toowoomba town, Queensland state, Australia. There were no reported casualties; it is unknown if the mosque was damaged by the fire. No group claimed responsibility for the incident.",1,1,1,0,,,0,1,0,7,Facility/Infrastructure Attack,,,,,15,Religious Figures/Institutions,86,Place of Worship,Unknown,Mosque,14,Australia,,,,,,,,,,,,,,,,,Unknown,,,,,,,0,,,0,-99,0,0,,,,,,,,,,8,Incendiary,18,Arson/Fire,,,,,,,,,,,,,,0,0,0,0,0,0,-9,,,,It is unknown if a mosque was damaged in this attack.,0,,,,,,,,,,,,,,,,,"""Mosque arson attack denounced by show of solidarity,"" Surat Basin Online, January 26, 2015.","""Police hunt men caught on CCTV over Queensland mosque arson,"" 9News.com.au, January 28, 2015.",,START Primary Collection,-9,-9,0,-9,
83,2015,3,30,,0,,14,Australia,12,Australasia & Oceania,Victoria,Brighton,-37.898215,144.995554,1,0,The incident occurred on North Rd.,"03/30/2015: Assailants set fire to St. James Church on North Road in Brighton, Victoria, Australia. There were no reported casualties but the church was damaged in the incident. This was one of two attacks targeting churches in Victoria on the same day. No group claimed responsibility for the incidents.",1,1,1,0,,,1,1,0,7,Facility/Infrastructure Attack,,,,,15,Religious Figures/Institutions,86,Place of Worship,St. James Church,Church,14,Australia,,,,,,,,,,,,,,,,,Unknown,,,,,,,0,,,0,-99,0,0,,,,,,,,,,8,Incendiary,18,Arson/Fire,,,,,,,,,,,,,,0,0,0,0,0,0,1,3,Minor (likely < $1 million),-99,A church was damaged in this attack.,0,,,,,,,,,,,,,,,,,"""Fourth Melbourne church fire not linked to Brighton, Dandenong fires, police believe,"" Australian Broadcasting Corporation (ABC) News, April 3, 2015.",,,START Primary Collection,-9,-9,0,-9,"201503300083, 201503300084"
84,2015,3,30,,0,,14,Australia,12,Australasia & Oceania,Victoria,St. Kilda East,-37.858684,144.996338,1,0,The incident occurred on Dandenong Rd.,"03/30/2015: Assailants set fire to St. Mary's Church on Dandenong Road in St. Kilda East, Victoria, Australia. There were no reported casualties but the church was damaged in the incident. This was one of two attacks targeting churches in Victoria on the same day. No group claimed responsibility for the incidents.",1,1,1,0,,,1,1,0,7,Facility/Infrastructure Attack,,,,,15,Religious Figures/Institutions,86,Place of Worship,St. Mary's Church,Church,14,Australia,,,,,,,,,,,,,,,,,Unknown,,,,,,,0,,,0,-99,0,0,,,,,,,,,,8,Incendiary,18,Arson/Fire,,,,,,,,,,,,,,0,0,0,0,0,0,1,3,Minor (likely < $1 million),-99,A church was damaged in this attack.,0,,,,,,,,,,,,,,,,,"""Fourth Melbourne church fire not linked to Brighton, Dandenong fires, police believe,"" Australian Broadcasting Corporation (ABC) News, April 3, 2015.",,,START Primary Collection,-9,-9,0,-9,"201503300083, 201503300084"
85,2015,4,1,,0,,14,Australia,12,Australasia & Oceania,Victoria,Dandenong,-37.988975,145.217452,1,0,The incident occurred on Foster St.,"04/01/2015: Assailants set fire to St. Mary's Church on Foster Street in Dandenong, Victoria, Australia. There were no reported casualties but the church was damaged in the attack. No group claimed responsibility for the incident.",1,1,1,0,,,0,1,0,7,Facility/Infrastructure Attack,,,,,15,Religious Figures/Institutions,86,Place of Worship,St. Mary's Church,Church,14,Australia,,,,,,,,,,,,,,,,,Unknown,,,,,,,0,,,0,-99,0,0,,,,,,,,,,8,Incendiary,18,Arson/Fire,,,,,,,,,,,,,,0,0,0,0,0,0,1,3,Minor (likely < $1 million),-99,A church was damaged in this attack.,0,,,,,,,,,,,,,,,,,"""Fourth Melbourne church fire not linked to Brighton, Dandenong fires, police believe,"" Australian Broadcasting Corporation (ABC) News, April 3, 2015.",,,START Primary Collection,-9,-9,0,-9,
86,2015,4,3,,0,,14,Australia,12,Australasia & Oceania,Victoria,Melbourne,-37.789922,145.170775,1,0,The incident occurred on Doncaster Rd.,"04/03/2015: Assailants set fire to St. David's Church on Doncaster Road in Melbourne, Australia. There were no reported casualties but the church was damaged in the attack. No group claimed responsibility for the incident.",1,1,1,0,,,0,1,0,7,Facility/Infrastructure Attack,,,,,15,Religious Figures/Institutions,86,Place of Worship,St. David's Church,Anglican Church,14,Australia,,,,,,,,,,,,,,,,,Unknown,,,,,,,0,,,0,-99,0,0,,,,,,,,,,8,Incendiary,18,Arson/Fire,,,,,,,,,,,,,,0,0,0,0,0,0,1,3,Minor (likely < $1 million),-99,A church was damaged in this attack.,0,,,,,,,,,,,,,,,,,"""Fourth Melbourne church fire not linked to Brighton, Dandenong fires, police believe,"" Australian Broadcasting Corporation (ABC) News, April 3, 2015.",,,START Primary Collection,-9,-9,0,-9,
87,2015,4,17,,0,,14,Australia,12,Australasia & Oceania,Queensland,Toowoomba,-27.564238,151.947275,1,0,,"04/17/2015: Assailants set fire to a mosque in Toowoomba city, Queensland state, Australia. No casualties were reported. No group claimed responsibility for the incident.",1,1,1,0,,,0,1,0,7,Facility/Infrastructure Attack,,,,,15,Religious Figures/Institutions,86,Place of Worship,Unknown,Mosque,14,Australia,,,,,,,,,,,,,,,,,Unknown,,,,,,,0,,,0,-99,0,0,,,,,,,,,,8,Incendiary,18,Arson/Fire,,,,,,,,,,,,,,0,0,0,0,0,0,1,3,Minor (likely < $1 million),-99,A mosque was damaged in this attack.,0,,,,,,,,,,,,,,,,,"""Arson Attack Leaves Queensland Mosque 'Almost Completely Destroyed' Two Days Before Opening,"" International Business Times Australia, April 17, 2015.","""Arsonist responsible for Australian mosque attack,"" World Bulletin, April 17, 2015.","""Australia mosque comes under 2nd attack this year,"" IRIB World Service, April 17, 2015.",START Primary Collection,-9,-9,0,-9,
88,2015,5,17,,0,,14,Australia,12,Australasia & Oceania,Tasmania,Hobart,-42.884049,147.323719,1,0,,"05/17/2015: Assailants set fire to a nightclub in Hobart city, Tasmania, Australia. No casualties were reported. No group claimed responsibility for the incident.",0,1,1,1,2,Other Crime Type,0,1,0,7,Facility/Infrastructure Attack,,,,,1,Business,2,Restaurant/Bar/Caf?Flamingos,Bar,,14,Australia,,,,,,,,,,,,,,,,,Unknown,,,,,,,0,,,0,-99,0,0,,,,,,,,,,8,Incendiary,18,Arson/Fire,,,,,,,,,,,,,Accelerant liquid was used in the attack.,0,0,0,0,0,0,1,3,Minor (likely < $1 million),-99,A bar was damaged in this attack.,0,,,,,,,,,,,,,,,,"There is doubt that this incident meets terrorism-related criteria. The nightclub's owner speculated that the assailant was either a ""disgruntled patron"" or had a homophobic motive.","""CCTV captures arson attack on club,"" Tasmania Mercury, May 20, 2015.","""Dramatic arson attack on Hobart's gay club,"" Same Same, May 20, 2015.",,START Primary Collection,-9,-9,0,-9,
89,2015,7,17,,0,,14,Australia,12,Australasia & Oceania,New South Wales,Sydney,-33.829658,151.117538,1,0,The incident occurred in Tennyson Point neighborhood.,"07/17/2015: An explosive device was found and defused outside the home of Brad Haddin, a cricket player, in Tennyson Point suburb, Sydney, Australia. No group claimed responsibility for the incident.",1,1,1,1,4,Lack of Intentionality,0,0,0,3,Bombing/Explosion,,,,,20,Unknown,,,Unknown,Unknown,14,Australia,,,,,,,,,,,,,,,,,Unknown,,,,,,,0,,,0,-99,0,0,,,,,,,,,,6,Explosives,17,Other Explosive Type,,,,,,,,,,,,,A crude bomb containing two butane canisters and an attached wick was used in the attack.,0,0,0,0,0,0,0,,,,,0,,,,,,,,,,,,,,,,There is doubt that this incident meets terrorism-related criteria. It is unclear if the explosive device was intended to be used to carry out an attack.,"""Explosive Device Found Outside Australian Cricketer Brad Haddin's Sydney Home,"" International Business Times, July 18, 2015.","""Explosive device found near Brad Haddin's home,"" NewsR.in, July 18, 2015.",,START Primary Collection,-9,-9,0,-9,
90,2015,10,2,,0,,14,Australia,12,Australasia & Oceania,New South Wales,Parramatta,-33.815129,151.003278,1,0,,"10/02/2015: An assailant opened fire on a civilian police employee outside a police headquarters in Parramatta city, Sydney region, New South Wales province, Australia. The civilian employee, Curtis Cheng, and the assailant were killed in the assault. No group claimed responsibility; however, sources identified the attacker as Farad Jabar Khalil Mohammad.",1,1,1,0,,,0,1,0,2,Armed Assault,,,,,3,Police,25,Police Security Forces/Officers,Australian Federal Police (AFP),Civilian Police Employee,14,Australia,,,,,,,,,,,,,,,,,Jihadi-inspired extremists,,,,,,,0,,,1,1,0,0,,,,,,,,,,5,Firearms,5,Unknown Gun Type,,,,,,,,,,,,,,2,0,1,0,0,0,0,,,,,0,,,,,,,,,,,,,,,,,"""Teenage terrorist Farhad Jabar spoke with Islamic State recruiter Neil Prakash,"" news.com.au, October 14, 2015.","""Sydney shooter described as quiet boy who nobody noticed,"" dpa-AFX International ProFeed, October 4, 2015.","""Australian Authorities Say Shooting by Teen at Police Station Is 'Linked to Terrorism',"" VICE, October 4, 2015.",START Primary Collection,-9,-9,0,-9,
91,2015,10,14,,0,,14,Australia,12,Australasia & Oceania,Victoria,Bannockburn,-38.047645,144.170032,1,0,The incident occurred on High St.,"10/14/2015: Assailants set fire to St. John the Evangelist church in Bannockburn, Victoria, Australia. No casualties were reported in the attack. No group claimed responsibility for the incident.",1,1,1,0,,,0,1,0,7,Facility/Infrastructure Attack,,,,,15,Religious Figures/Institutions,86,Place of Worship,Unknown,Mosque,14,Australia,,,,,,,,,,,,,,,,,Unknown,,,,,,,0,,,0,-99,0,0,,,,,,,,,,8,Incendiary,18,Arson/Fire,,,,,,,,,,,,,,0,0,0,0,0,0,1,3,Minor (likely < $1 million),-99,A church was damaged in this attack.,0,,,,,,,,,,,,,,,,,"""Geelong's Muslims get prayer space after fire guts mosque,"" Melbourne Age, May 18, 2016.","""Church arsonist 'hit mosque by mistake',"" The Australian, May 18, 2016.",,START Primary Collection,-9,-9,0,-9,
92,2015,11,21,,0,,14,Australia,12,Australasia & Oceania,New South Wales,Orange,-33.283013,149.100151,1,0,,"11/21/2015: Assailants threw Molotov cocktails at the Heatherbrae Parade church in Orange, New South Wales, Australia. There were no reported casualties. No group claimed responsibility for the incident.",1,1,1,0,,,0,1,0,7,Facility/Infrastructure Attack,,,,,15,Religious Figures/Institutions,86,Place of Worship,Heatherbrae Parade Church,Church,14,Australia,,,,,,,,,,,,,,,,,Unknown,,,,,,,0,,,0,-99,0,0,,,,,,,,,,8,Incendiary,19,Molotov Cocktail/Petrol Bomb,,,,,,,,,,,,,Several Molotov cocktails were used in the attack.,0,0,0,0,0,0,1,3,Minor (likely < $1 million),-99,A church was damaged in this attack.,0,,,,,,,,,,,,,,,,,"""NO TITLE SUPPLIED,"" Western Advocate (Fairfax Media), November 24, 2015.","""Vandals raise hell: Molotov cocktails thrown at church,"" Central Western Daily, November 24, 2015.",,START Primary Collection,-9,-9,0,-9,
93,2015,11,23,,0,,14,Australia,12,Australasia & Oceania,New South Wales,Orange,-33.283013,149.100151,1,0,,"11/23/2015: Assailants threw Molotov cocktails at St. Peter's Lutheran Church in Orange, New South Wales, Australia. There were no reported casualties. No group claimed responsibility for the incident.",1,1,1,0,,,0,1,0,7,Facility/Infrastructure Attack,,,,,15,Religious Figures/Institutions,86,Place of Worship,St. Peter's Lutheran Church,Church,14,Australia,,,,,,,,,,,,,,,,,Unknown,,,,,,,0,,,0,-99,0,0,,,,,,,,,,8,Incendiary,19,Molotov Cocktail/Petrol Bomb,,,,,,,,,,,,,Molotov cocktails were used in the attack.,0,0,0,0,0,0,1,3,Minor (likely < $1 million),-99,A church was damaged in this attack.,0,,,,,,,,,,,,,,,,,"""NO TITLE SUPPLIED,"" Western Advocate (Fairfax Media), November 24, 2015.","""Vandals raise hell: Molotov cocktails thrown at church,"" Central Western Daily, November 24, 2015.",,START Primary Collection,-9,-9,0,-9,
94,2015,12,5,,0,,14,Australia,12,Australasia & Oceania,Victoria,Norlane,-38.091417,144.357575,1,0,The incident occurred on Sparks Rd.,"12/05/2015: Assailants set fire to St. Peter's Chains church on Sparks road in Norlane, Victoria, Australia. No casualties were reported in the attack. This was one of two related attacks on this day. No group claimed responsibility for the incident.",1,1,1,0,,,1,1,0,7,Facility/Infrastructure Attack,,,,,15,Religious Figures/Institutions,86,Place of Worship,St. Peter's Church,Church,14,Australia,,,,,,,,,,,,,,,,,Unknown,,,,,,,0,,,0,-99,0,0,,,,,,,,,,8,Incendiary,18,Arson/Fire,,,,,,,,,,,,,,0,0,0,0,0,0,1,3,Minor (likely < $1 million),-99,A church was damaged in this attack.,0,,,,,,,,,,,,,,,,,"""Geelong's Muslims get prayer space after fire guts mosque,"" Melbourne Age, May 18, 2016.","""Church arsonist 'hit mosque by mistake',"" The Australian, May 18, 2016.","""Norlane church communities left reeling after two arson attacks,"" Geelong Advertiser (Victoria), December 5, 2015.",START Primary Collection,-9,-9,0,-9,"201512050036, 201512050037"
95,2015,12,5,,0,,14,Australia,12,Australasia & Oceania,Victoria,Norlane,-38.094181,144.3571,1,0,The incident occurred on Spruhan Ave.,"12/05/2015: Assailants set fire to the Norlane Baptist Church on Spruhan Avenue, Norlane, Victoria, Australia. No casualties were reported in the attack. This was one of two related attacks on this day. No group claimed responsibility for the incident.",1,1,1,0,,,1,1,0,7,Facility/Infrastructure Attack,,,,,15,Religious Figures/Institutions,86,Place of Worship,Unknown,Baptist Church,14,Australia,,,,,,,,,,,,,,,,,Unknown,,,,,,,0,,,0,-99,0,0,,,,,,,,,,8,Incendiary,18,Arson/Fire,,,,,,,,,,,,,,0,0,0,0,0,0,1,3,Minor (likely < $1 million),-99,A church was damaged in this attack.,0,,,,,,,,,,,,,,,,,"""Geelong's Muslims get prayer space after fire guts mosque,"" Melbourne Age, May 18, 2016.","""Church arsonist 'hit mosque by mistake',"" The Australian, May 18, 2016.","""Norlane church communities left reeling after two arson attacks,"" Geelong Advertiser (Victoria), December 5, 2015.",START Primary Collection,-9,-9,0,-9,"201512050036, 201512050037"
96,2016,4,14,,0,,14,Australia,12,Australasia & Oceania,Victoria,Geelong,-38.138255,144.348328,1,0,,"04/14/2016: Assailants set fire to the Geelong West Presbyterian Church in Geelong, Victoria, Australia. There were no reported casualties, but the church was damaged in the attack. No group claimed responsibility for the incident; however, sources suggested that the attack may have been related to allegations of past sexual abuse by local priests.",1,1,1,0,,,0,1,0,7,Facility/Infrastructure Attack,,,,,15,Religious Figures/Institutions,86,Place of Worship,Geelong West Presbyterian Church,Church,14,Australia,,,,,,,,,,,,,,,,,Unknown,,,,,,,0,,,0,-99,0,0,,,,,,,,,,8,Incendiary,18,Arson/Fire,,,,,,,,,,,,,,0,0,0,0,0,0,1,4,Unknown,-99,A church was damaged in this attack.,0,,,,,,,,,,,,,,,,,"""Who is burning Geelong's churches?,"" Australian Broadcasting Corporation (ABC) News, May 18, 2016.","""Fire destroys Geelong West Presbyterian Church,"" Herald Sun (Australia), April 14, 2016.","""Geelong Presbyterian church fire being treated as suspicious,"" Australian Broadcasting Corporation (ABC) News, April 14, 2016.",START Primary Collection,-9,-9,0,-9,
97,2016,5,15,,0,,14,Australia,12,Australasia & Oceania,Victoria,Fawkner,-37.698179,144.965079,1,0,,"05/15/2016: Assailants threw firebombs at the Imam Ali Islamic Centre in Fawkner, Victoria, Australia. There were no reported casualties in the attack. No group claimed responsibility for the incident.",1,1,1,0,,,0,1,0,7,Facility/Infrastructure Attack,,,,,15,Religious Figures/Institutions,87,Affiliated Institution,Imam Ali Islamic Centre,Shia Community Center,14,Australia,,,,,,,,,,,,,,,,,Unknown,,,,,,,0,,,0,-99,0,0,,,,,,,,,,8,Incendiary,19,Molotov Cocktail/Petrol Bomb,,,,,,,,,,,,,Firebombs were used in the attack.,0,0,0,0,0,0,1,3,Minor (likely < $1 million),-99,An Islamic center was damaged in this attack.,0,,,,,,,,,,,,,,,,,"""Police search for culprits behind the fire-bombing of Islamic community centre,"" Sydney Morning Herald, February 25, 2017.","""Attacks on Vic Islamic Centre probed,"" Herald Sun, January 30, 2017.","""Attacks on Islamic centre probed by arson and explosives squad,"" Herald Sun, January 30, 2017.",START Primary Collection,-9,-9,0,-9,
98,2016,5,18,,0,,14,Australia,12,Australasia & Oceania,Victoria,Geelong,-38.133743,144.333937,1,0,,"05/18/2016: Assailants set fire to a mosque in Geelong, Victoria, Australia. There were no reported casualties in the attack. No group claimed responsibility for the incident; however, sources suggested that the mosque was targeted because the assailants mistook it for a church.",1,1,1,0,,,0,1,0,7,Facility/Infrastructure Attack,,,,,15,Religious Figures/Institutions,86,Place of Worship,Unknown,Mosque,14,Australia,,,,,,,,,,,,,,,,,Unknown,,,,,,"The specific motive is unknown; however, sources posited that the mosque was targeted because the assailants believed it was a church.",0,,,0,-99,0,0,,,,,,,,,,8,Incendiary,18,Arson/Fire,,,,,,,,,,,,,,0,0,0,0,0,0,1,3,Minor (likely < $1 million),-99,A mosque was damaged in this attack.,0,,,,,,,,,,,,,,,,,"""Geelong's Muslims get prayer space after fire guts mosque,"" Melbourne Age, May 18, 2016.","""Church arsonist 'hit mosque by mistake',"" The Australian, May 18, 2016.","""Geelong mosque destroyed by suspicious fire; Islam 'not the target', police say,"" ABC Premium News (Australia), May 18, 2016.",START Primary Collection,-9,-9,0,-9,
99,2016,6,28,,0,,14,Australia,12,Australasia & Oceania,Western Australia,Perth,-32.053696,115.960731,1,0,,"06/28/2016: Assailants threw a petrol bomb at Thornlie Mosque in Perth, Western Australia state, Australia. There were no reported casualties in the attack. No group claimed responsibility for the incident.",1,1,1,0,,,0,1,0,7,Facility/Infrastructure Attack,,,,,15,Religious Figures/Institutions,86,Place of Worship,Thornlie Mosque,Mosque,14,Australia,,,,,,,,,,,,,,,,,Unknown,,,,,,"The specific motive is unknown; however, sources noted that there was derogatory language regarding Islam spray-painted on the wall.",0,,,0,-99,0,0,,,,,,,,,,8,Incendiary,19,Molotov Cocktail/Petrol Bomb,,,,,,,,,,,,,A petrol bomb was used in the attack.,0,0,0,0,0,0,1,3,Minor (likely < $1 million),-99,An unspecified number of vehicles were damaged in this attack.,0,,,,,,,,,,,,,,,,,"""Firebomb explodes outside Perth mosque as hundreds pray,"" Al Jazeera, June 29, 2016.","""Australian Mosque Targeted With Fire Bomb,"" Outlook India, June 29, 2016.","""Suspected car bomb detonated outside Perth mosque as hundreds pray inside; No one injured in attack, which included anti-Islamic graffiti being sprayed on the fence outside the mosque in Thornlie in Perth's southern suburbs,"" The Guardian (London), June 28, 2016.",START Primary Collection,-9,-9,0,-9,
100,2016,7,24,,0,,14,Australia,12,Australasia & Oceania,Western Australia,Perth,-31.959414,115.873955,1,0,,"07/24/2016: Assailants set fire to the entrance of the 6PR radio station in Perth, Western Australia, Australia. There were no reported casualties in the attack. No group claimed responsibility for the incident; however, sources noted that the attack may have been related to a radio discussion on Islam earlier that day.",1,1,1,0,,,0,1,0,2,Armed Assault,,,,,10,Journalists & Media,54,Radio Journalist/Staff/Facility,6PR Radio Station,Radio Station,14,Australia,,,,,,,,,,,,,,,,,Unknown,,,,,,"The specific motive is unknown; however, sources noted that the attack may have been related to a radio discussion on Islam earlier that day.",0,,,0,-99,0,0,,,,,,,,,,8,Incendiary,18,Arson/Fire,,,,,,,,,,,,,,0,0,0,0,0,0,1,3,Minor (likely < $1 million),800,An office building was damaged in this attack.,0,,,,,,,,,,,,,,,,,"""Arson attack on Radio 6PR and WAtoday building,"" Melbourne Age, July 24, 2016.","""�Arson attack?at 6PR radio station,"" Perth Now, July 24, 2016.","""Perth radio station forced off air for 11 minutes by suspected arson attack,"" Guardian.co.uk, July 24, 2016.",START Primary Collection,-9,-9,0,-9,
101,2016,9,10,,0,,14,Australia,12,Australasia & Oceania,New South Wales,Minto,-34.031804,150.850332,1,0,,"09/10/2016: An assailant stabbed and injured Wayne Greenhalg, a civilian, in Minto, New South Wales, Australia. Ihsas Khan claimed responsibility for the incident, and authorities suspected that the attack was inspired by the Islamic State of Iraq and the Levant (ISIL).",1,1,1,0,,,0,1,0,2,Armed Assault,,,,,14,Private Citizens & Property,68,Named Civilian,Not Applicable,Civilian: Wayne Greenhalg,14,Australia,,,,,,,,,,,,,,,,,Jihadi-inspired extremists,,,,,,"The specific motive is unknown; however, authorities suspected that the attack was inspired by the Islamic State of Iraq and the Levant (ISIL).",0,,,1,1,1,1,8,Personal claim,,,,,,,,9,Melee,23,Knife or Other Sharp Object,,,,,,,,,,,,,A hunting knife was used in the attack.,0,0,0,1,0,0,0,,,,,0,,,,,,,,,,,,,,,,,"""ISIS-inspired Australian stabber charged with terrorism, attempted murder,"" Jerusalem Post, September 11, 2016.","""Terrorism-inspired stabbing: Ihsas Khan made 'extensive admissions' to police, court hears,"" Australian Broadcasting Corporation (ABC) News, November 24, 2016.","""Australia: Sydney stabbing: Alleged terror attacker inspired by IS, police say,"" ABC Online, September 11, 2016.",START Primary Collection,-9,-9,0,-9,
102,2016,9,23,,0,,14,Australia,12,Australasia & Oceania,New South Wales,Hobbys Yards,-33.694586,149.328405,1,0,,"09/23/2016: Assailants set fire to St. Peter's Uniting Church in Hobbys Yards, New South Wales, Australia. There were no reported casualties in the attack. No group claimed responsibility for the incident.",1,1,1,0,,,0,1,0,7,Facility/Infrastructure Attack,,,,,15,Religious Figures/Institutions,86,Place of Worship,St. Peter's Uniting Church,Church,14,Australia,,,,,,,,,,,,,,,,,Unknown,,,,,,,0,,,0,-99,0,0,,,,,,,,,,8,Incendiary,18,Arson/Fire,,,,,,,,,,,,,,0,0,0,0,0,0,1,4,Unknown,-99,A church was set ablaze in this attack.,0,,,,,,,,,,,,,,,,,"""Church hit by fire,"" Blayney Chronicle, September 26, 2016.",,,START Primary Collection,-9,-9,0,-9,
103,2016,11,24,,0,,14,Australia,12,Australasia & Oceania,Victoria,Fawkner,-37.698036,144.965437,1,0,The incident occurred in the Fawkner suburb in the north of the city.,"11/24/2016: Assailants threw incendiary devices at the Imam Ali Islamic Center in Fawkner, north of Melbourne, Australia. There were no reported casualties in the attack. No group claimed responsibility for the incident.",1,1,1,0,,,0,1,0,7,Facility/Infrastructure Attack,,,,,15,Religious Figures/Institutions,87,Affiliated Institution,Imam Ali Islamic Center,Islamic Community Center,14,Australia,,,,,,,,,,,,,,,,,Unknown,,,,,,,0,,,0,-99,0,0,,,,,,,,,,8,Incendiary,19,Molotov Cocktail/Petrol Bomb,,,,,,,,,,,,,Firebombs were used in the attack.,0,0,0,0,0,0,1,3,Minor (likely < $1 million),-99,An Islamic center was damaged in this attack.,0,,,,,,,,,,,,,,,,,"""Three men face charges for IS-inspired arson attacks in Melbourne,"" Deutsche Presse-Agentur, August 20, 2017.","""Police search for culprits behind the fire-bombing of Islamic community centre,"" Sydney Morning Herald, February 25, 2017.","""Attacks on Vic Islamic Centre probed,"" Herald Sun, January 30, 2017.",START Primary Collection,-9,-9,0,-9,
104,2016,12,11,,0,,14,Australia,12,Australasia & Oceania,Victoria,Fawkner,-37.698082,144.964664,1,0,,"12/11/2016: Assailants threw an incendiary device at the Imam Ali Islamic Centre in Fawkner, Victoria, Australia. There were no reported casualties. No group claimed responsibility for the incident and while the specific motive is unknown, the words ""Islamic State"" were spray-painted on the building.",1,1,1,0,,,0,1,0,7,Facility/Infrastructure Attack,,,,,15,Religious Figures/Institutions,87,Affiliated Institution,Imam Ali Islamic Centre,Religious Community Center,14,Australia,,,,,,,,,,,,,,,,,Unknown,,,,,,"The specific motive is unknown; however, the words ""Islamic State"" were spray-painted on the building.",0,,,0,-99,0,0,,,,,,,,,,8,Incendiary,19,Molotov Cocktail/Petrol Bomb,,,,,,,,,,,,,A firebomb was used in the attack.,0,0,0,0,0,0,1,3,Minor (likely < $1 million),-99,An Islamic center was damaged in this attack.,0,,,,,,,,,,,,,,,,,"""Three men face charges for IS-inspired arson attacks in Melbourne,"" Deutsche Presse-Agentur, August 20, 2017.","""Attacks on Vic Islamic Centre probed,"" Herald Sun, January 30, 2017.","""Islamic centre firebombed and tagged with ""Islamic State"" graffiti,"" Sydney Morning Herald, December 11, 2016.",START Primary Collection,-9,-9,0,-9,
105,2017,4,7,,0,,14,Australia,12,Australasia & Oceania,New South Wales,Queanbeyan,-35.349304,149.244385,1,0,The incident occurred along Bungendore Road.,"04/07/2017: Two assailants stabbed and killed a service station worked on Bungendore Road, Queanbeyan, New South Wales, Australia. No group claimed responsibility for the incident; however, sources believe the attack was inspired by jihadi extremism, as the letters ""IS"" were discovered at the scene.",1,1,1,0,,,0,1,0,2,Armed Assault,,,,,1,Business,1,Gas/Oil/Electric,Caltex Petroleum Australia Pty. Ltd.,Service Station Worker: Zeeshan Akbar,14,Australia,,,,,,,,,,,,,,,,,Jihadi-inspired extremists,,,,,,"The specific motive is unknown; however, sources noted that the letters ""IS,"" likely referencing the Islamic State of Iraq and the Levant (ISIL), were discovered at the scene.",0,,,1,2,2,0,,,,,,,,,,9,Melee,23,Knife or Other Sharp Object,,,,,,,,,,,,,,1,0,0,0,0,0,0,,,,,0,,,,,,,,,,,,,,,,,"""Queanbeyan stabbing death: two teens charged with murder,"" The Guardian, April 7, 2017.","""Two teenagers arrested after fatal stabbing at Queanbeyan service station,"" The Sydney Morning Herald, April 7, 2017.",,START Primary Collection,-9,-9,0,-9,
106,2017,6,5,,0,,14,Australia,12,Australasia & Oceania,Victoria,Brighton,-37.906633,145.007628,1,0,The incident occurred on Bay street.,"06/05/2017: An assailants took a sex worker hostage at the Buckingham Serviced Apartments on Bay Street in Brighton, Victoria, Australia. At least two people, including the assailant, were killed and three Victoria Police officers were injured in the incident. The hostage was released a few hours later. Yacqub Khayre claimed responsibility and stated that he carried out the attack on behalf of the Islamic State of Iraq and the Levant (ISIL) and Al-Qaida.",1,1,1,0,,,0,1,0,5,Hostage Taking (Barricade Incident),,,,,3,Police,25,Police Security Forces/Officers,Victoria Police,Officers,14,Australia,14,Private Citizens & Property,77,Laborer (General)/Occupation Identified,Not Applicable,Sex Worker,45,Colombia,,,,,,,,,Jihadi-inspired extremists,,,,,,"An unaffiliated individual, identified as Yacqub Khayre, claimed responsibility for the incident and stated that he carried out the attack on behalf of the Islamic State of Iraq and the Levant (ISIL) and Al-Qaida.",0,,,1,1,0,1,8,Personal claim,,,,,,,,5,Firearms,5,Unknown Gun Type,,,,,,,,,,,,,,2,0,1,3,0,0,-9,,,,,1,1,0,2,,,,0,,,,,,5,Successful Rescue,1,"The Islamic State of Iraq and the Levant (ISIL) claimed responsibility for the incident; however, Khayre's connection to ISIL could not be confirmed. Furthermore, Khayre had previous been linked to Al-Shabaab. Casualty numbers conflict across sources. Following GTD protocol, the majority reliable estimates are reported here.","""Australia police regard Melbourne attack as 'act of terrorism',"" Jerusalem Post, June 5, 2017.","""REFUGEE TO JIHAD,"" The Daily Telegraph (Australia), June 7, 2017.","""Weakling, deserter and a   jihadi   of convenience,"" The Australian, June 7, 2017.",START Primary Collection,-9,-9,1,1,
107,2017,7,15,,0,,14,Australia,12,Australasia & Oceania,New South Wales,Sydney,-33.934491,151.179691,1,0,,"07/15/2017: Assailants attempted to smuggle luggage containing two explosive devices onto an airplane at Sydney Airport in Sydney, Australia. After the luggage was refused by the airline for being overweight, the assailants left the airport and subsequently dismantled the devices. No group claimed responsibility for the incident; however, sources stated that the attempted attack was coordinated by the Islamic State of Iraq and the Levant (ISIL).",1,1,1,0,,,0,0,1,3,Bombing/Explosion,,,,,6,Airports & Aircraft,42,Aircraft (not at an airport),Etihad Airways,Airplane,14,Australia,,,,,,,,,,,,,,,,,Islamic State of Iraq and the Levant (ISIL),,,,,,,0,,,0,3,2,0,,,,,,,,,,6,Explosives,13,Suicide (carried bodily by human being),,,,,,,,,,,,,"Two explosive devices, including one hidden inside a meat grinder and another inside a Barbie doll, planted inside luggage were used in the attack.",0,0,0,0,0,0,0,,,,,0,,,,,,,,,,,,,,,,,"""Australian terror plan to hide plane bomb in Barbie revealed,"" BBC, August 21, 2017.","""Khaled Merhi pleads not guilty to weapons charge after Sydney 'bomb plot' raid,"" The Sydney Morning Herald, August 24, 2017.","""'Catastrophic': How Australia narrowly escaped two 'sophisticated bomb plots',"" The Sydney Morning Herald, August 5, 2017.",START Primary Collection,1,1,0,1,
108,2017,12,21,,0,,14,Australia,12,Australasia & Oceania,Victoria,Melbourne,-37.8182,144.965,1,0,The incident occurred along Flinders street.,"12/21/2017: An assailant in a vehicle ran over pedestrians along Flinders Street and the Yarra River in Melbourne, Australia. At least one person was killed and 18 other people, including the assailant, were injured in the attack. Saeed Noori, identified as a Muslim extremist, claimed responsibility and stated that he carried out the incident in retaliation for the ""mistreatment of Muslims.""",1,1,1,1,4,Lack of Intentionality,0,1,0,8,Unarmed Assault,,,,,14,Private Citizens & Property,67,Unnamed Civilian/Unspecified,Not Applicable,Civilians,14,Australia,14,Private Citizens & Property,67,Unnamed Civilian/Unspecified,Not Applicable,Civilians,999,Multinational,,,,,,,,,Muslim extremists,,,,,,"An unaffiliated individual, identified as Saeed Noori, claimed responsibility for the incident and stated that the attack was carried out in retaliation for the ""mistreatment of Muslims.""",0,,,1,1,1,1,8,Personal claim,,,,,,,,10,"Vehicle (not to include vehicle-borne explosives, i.e., car or truck bombs)",,,,,,,,,,,,,,,A white Suzuki SUV was used in the attack.,1,0,0,18,0,1,0,,,,,0,,,,,,,,,,,,,,,,"The victims also included tourists and civilians from China, India, Ireland, Italy, New Zealand, South Korea, and Venezuela. Casualty numbers conflict across sources. Following GTD protocol, the most recent reliable estimates are reported here. There is doubt that this incident meets terrorism-related criteria. Sources noted that Noori suffers from ""serious mental illness and drug abuse.""","""World Briefs: Melbourne car attack victim dies,"" Straits Times, December 30, 2017.","""AUSTRALIA INCIDENT - Melbourne attack has no links to terrorism, Turnbull says,"" EFE, December 22, 2017.","""As it happened: Melbourne CBD attack day two,"" The Age, Victoria, December 22, 2017.",START Primary Collection,-9,-9,1,1,
